"STATION","DATE","REPORT_TYPE","SOURCE","AWND","BackupDirection","BackupDistance","BackupDistanceUnit","BackupElements","BackupElevation","BackupElevationUnit","BackupEquipment","BackupLatitude","BackupLongitude","BackupName","CDSD","CLDD","DSNW","DailyAverageDewPointTemperature","DailyAverageDryBulbTemperature","DailyAverageRelativeHumidity","DailyAverageSeaLevelPressure","DailyAverageStationPressure","DailyAverageWetBulbTemperature","DailyAverageWindSpeed","DailyCoolingDegreeDays","DailyDepartureFromNormalAverageTemperature","DailyHeatingDegreeDays","DailyMaximumDryBulbTemperature","DailyMinimumDryBulbTemperature","DailyPeakWindDirection","DailyPeakWindSpeed","DailyPrecipitation","DailySnowDepth","DailySnowfall","DailySustainedWindDirection","DailySustainedWindSpeed","DailyWeather","HDSD","HTDD","HeavyFog","HourlyAltimeterSetting","HourlyDewPointTemperature","HourlyDryBulbTemperature","HourlyPrecipitation","HourlyPresentWeatherType","HourlyPressureChange","HourlyPressureTendency","HourlyRelativeHumidity","HourlySeaLevelPressure","HourlySkyConditions","HourlyStationPressure","HourlyVisibility","HourlyWetBulbTemperature","HourlyWindDirection","HourlyWindGustSpeed","HourlyWindSpeed","MonthlyAverageRH","MonthlyDaysWithGT001Precip","MonthlyDaysWithGT010Precip","MonthlyDaysWithGT32Temp","MonthlyDaysWithGT90Temp","MonthlyDaysWithLT0Temp","MonthlyDaysWithLT32Temp","MonthlyDepartureFromNormalAverageTemperature","MonthlyDepartureFromNormalCoolingDegreeDays","MonthlyDepartureFromNormalHeatingDegreeDays","MonthlyDepartureFromNormalMaximumTemperature","MonthlyDepartureFromNormalMinimumTemperature","MonthlyDepartureFromNormalPrecipitation","MonthlyDewpointTemperature","MonthlyGreatestPrecip","MonthlyGreatestPrecipDate","MonthlyGreatestSnowDepth","MonthlyGreatestSnowDepthDate","MonthlyGreatestSnowfall","MonthlyGreatestSnowfallDate","MonthlyMaxSeaLevelPressureValue","MonthlyMaxSeaLevelPressureValueDate","MonthlyMaxSeaLevelPressureValueTime","MonthlyMaximumTemperature","MonthlyMeanTemperature","MonthlyMinSeaLevelPressureValue","MonthlyMinSeaLevelPressureValueDate","MonthlyMinSeaLevelPressureValueTime","MonthlyMinimumTemperature","MonthlySeaLevelPressure","MonthlyStationPressure","MonthlyTotalLiquidPrecipitation","MonthlyTotalSnowfall","MonthlyWetBulb","NormalsCoolingDegreeDay","NormalsHeatingDegreeDay","REM","REPORT_TYPE","SOURCE","ShortDurationEndDate005","ShortDurationEndDate010","ShortDurationEndDate015","ShortDurationEndDate020","ShortDurationEndDate030","ShortDurationEndDate045","ShortDurationEndDate060","ShortDurationEndDate080","ShortDurationEndDate100","ShortDurationEndDate120","ShortDurationEndDate150","ShortDurationEndDate180","ShortDurationPrecipitationValue005","ShortDurationPrecipitationValue010","ShortDurationPrecipitationValue015","ShortDurationPrecipitationValue020","ShortDurationPrecipitationValue030","ShortDurationPrecipitationValue045","ShortDurationPrecipitationValue060","ShortDurationPrecipitationValue080","ShortDurationPrecipitationValue100","ShortDurationPrecipitationValue120","ShortDurationPrecipitationValue150","ShortDurationPrecipitationValue180","Sunrise","Sunset","TStorms","WindEquipmentChangeDate"
"72503014732","2020-05-10T00:51:00","FM-15","7","","","","","","","","","","","","","","","","","","","","","","","","","","","","","","","","","","","","","","30.08","20","43","0.00","","-0.01","0","40","30.08","FEW:02 60","30.05","10.00","35","260","25","16","","","","","","","","","","","","","","","","","","","","","","","","","","","","","","","","","","","","","MET13805/10/20 00:51:02 METAR KLGA 100551Z 26014G22KT 10SM FEW060 06/M07 A3008 RMK AO2 PK WND 24029/0523 SLP186 T00611067 10067 20056 50005 (WL)","FM-15","7","","","","","","","","","","","","","","","","","","","","","","","","","","","",""
"72503014732","2020-05-10T01:00:00","FM-12","4","","","","","","","","","","","","","","","","","","","","","","","","","","","","","","","","","","","","","","","20","43","","","0.01","9","40","30.08","57","30.04","9.94","35","260","","16","","","","","","","","","","","","","","","","","","","","","","","","","","","","","","","","","","","","","SYN08672503 32766 22614 10061 21067 30172 40186 50005 90551 333 10067 20022 91022 555 91006=","FM-12","4","","","","","","","","","","","","","","","","","","","","","","","","","","","",""
"72503014732","2020-05-10T01:51:00","FM-15","7","","","","","","","","","","","","","","","","","","","","","","","","","","","","","","","","","","","","","","30.07","21","42","0.00","","","","43","30.07","CLR:00","30.04","10.00","34","260","25","14","","","","","","","","","","","","","","","","","","","","","","","","","","","","","","","","","","","","","MET09905/10/20 01:51:02 METAR KLGA 100651Z 26012G22KT 10SM CLR 06/M06 A3007 RMK AO2 SLP182 T00561061 (WL)","FM-15","7","","","","","","","","","","","","","","","","","","","","","","","","","","","",""
"72503014732","2020-05-10T02:51:00","FM-15","7","","","","","","","","","","","","","","","","","","","","","","","","","","","","","","","","","","","","","","30.06","21","42","0.00","","","","43","30.06","CLR:00","30.03","10.00","34","250","","9","","","","","","","","","","","","","","","","","","","","","","","","","","","","","","","","","","","","","MET11405/10/20 02:51:02 METAR KLGA 100751Z 25008KT 10SM CLR 06/M06 A3006 RMK AO2 PK WND 28026/0653 SLP179 T00561061 (WL)","FM-15","7","","","","","","","","","","","","","","","","","","","","","","","","","","","",""
"72503014732","2020-05-10T03:51:00","FM-15","7","","","","","","","","","","","","","","","","","","","","","","","","","","","","","","","","","","","","","","30.05","20","42","0.00","","+0.04","8","41","30.05","CLR:00","30.02","10.00","34","240","23","16","","","","","","","","","","","","","","","","","","","","","","","","","","","","","","","","","","","","","MET10505/10/20 03:51:02 METAR KLGA 100851Z 24014G20KT 10SM CLR 06/M07 A3005 RMK AO2 SLP175 T00561067 58012 (WL)","FM-15","7","","","","","","","","","","","","","","","","","","","","","","","","","","","",""
"72503014732","2020-05-10T04:00:00","FM-12","4","","","","","","","","","","","","","","","","","","","","","","","","","","","","","","","","","","","","","","","20","42","","","+0.04","8","41","30.05","","30.01","9.94","34","240","","16","","","","","","","","","","","","","","","","","","","","","","","","","","","","","","","","","","","","","SYN07472503 32966 02414 10056 21067 30162 40175 58012 90851 333 91020 555 91009=","FM-12","4","","","","","","","","","","","","","","","","","","","","","","","","","","","",""
"72503014732","2020-05-10T04:51:00","FM-15","7","","","","","","","","","","","","","","","","","","","","","","","","","","","","","","","","","","","","","","30.06","20","43","0.00","","","","40","30.06","CLR:00","30.03","10.00","35","260","28","22","","","","","","","","","","","","","","","","","","","","","","","","","","","","","","","","","","","","","MET11705/10/20 04:51:02 METAR KLGA 100951Z 26019G24KT 10SM CLR 06/M07 A3006 RMK AO2 PK WND 26027/0912 SLP178 T00611067 (WL)","FM-15","7","","","","","","","","","","","","","","","","","","","","","","","","","","","",""
"72503014732","2020-05-10T05:51:00","FM-15","7","","","","","","","","","","","","","","","","","","","","","","","","","","","","","","","","","","","","","","30.10","22","42","0.00","","","","45","30.09","CLR:00","30.07","10.00","35","230","","14","","","","","","","","","","","","","","","","","","","","","","","","","","","","","","","","","","","","","MET09705/10/20 05:51:02 METAR KLGA 101051Z 23012KT 10SM CLR 06/M06 A3010 RMK AO2 SLP191 T00561056 (ATK)","FM-15","7","","","","","","","","","","","","","","","","","","","","","","","","","","","",""
"72503014732","2020-05-10T06:51:00","FM-15","7","","","","","","","","","","","","","","","","","","","","","","","","","","","","","","","","","","","","","","30.12","22","44","0.00","","-0.07","3","41","30.11","FEW:02 200 FEW:02 250","30.09","10.00","36","240","","15","","","","","","","","","","","","","","","","","","","","","","","","","","","","","","","","","","","","","MET12505/10/20 06:51:02 METAR KLGA 101151Z 24013KT 10SM FEW200 FEW250 07/M06 A3012 RMK AO2 SLP197 T00671056 10067 20050 53023 (ATK)","FM-15","7","","","","","","","","","","","","","","","","","","","","","","","","","","","",""
"72503014732","2020-05-10T07:00:00","FM-12","4","","","","","","","","","","","","","","","","","","","","","","","","","","","","","","","","","","","","","","","22","44","","","-0.07","3","41","30.11","","30.08","9.94","36","240","","15","","","","","","","","","","","","","","","","","","","","","","","","","","","","","","","","","","","","","SYN08072503 32966 22413 10067 21056 30186 40197 53023 91151 333 10094 20050 555 91012=","FM-12","4","","","","","","","","","","","","","","","","","","","","","","","","","","","",""
"72503014732","2020-05-10T07:51:00","FM-15","7","","","","","","","","","","","","","","","","","","","","","","","","","","","","","","","","","","","","","","30.12","22","46","0.00","","","","38","30.11","FEW:02 90 FEW:02 200 FEW:02 250","30.09","10.00","37","250","24","16","","","","","","","","","","","","","","","","","","","","","","","","","","","","","","","","","","","","","MET11705/10/20 07:51:02 METAR KLGA 101251Z 25014G21KT 10SM FEW090 FEW200 FEW250 08/M06 A3012 RMK AO2 SLP197 T00781056 (ATK)","FM-15","7","","","","","","","","","","","","","","","","","","","","","","","","","","","",""
"72503014732","2020-05-10T08:51:00","FM-15","7","","","","","","","","","","","","","","","","","","","","","","","","","","","","","","","","","","","","","","30.10","22","50","0.00","","","","33","30.10","FEW:02 90 FEW:02 200 SCT:04 250","30.07","10.00","39","260","22","13","","","","","","","","","","","","","","","","","","","","","","","","","","","","","","","","","","","","","MET11705/10/20 08:51:02 METAR KLGA 101351Z 26011G19KT 10SM FEW090 FEW200 SCT250 10/M06 A3010 RMK AO2 SLP193 T01001056 (ATK)","FM-15","7","","","","","","","","","","","","","","","","","","","","","","","","","","","",""
"72503014732","2020-05-10T09:51:00","FM-15","7","","","","","","","","","","","","","","","","","","","","","","","","","","","","","","","","","","","","","","30.09","22","54","0.00","","+0.03","8","29","30.09","FEW:02 42 SCT:04 190 SCT:04 250","30.06","10.00","41","240","28","20","","","","","","","","","","","","","","","","","","","","","","","","","","","","","","","","","","","","","MET12305/10/20 09:51:02 METAR KLGA 101451Z 24017G24KT 10SM FEW042 SCT190 SCT250 12/M06 A3009 RMK AO2 SLP188 T01221056 58009 (ATK)","FM-15","7","","","","","","","","","","","","","","","","","","","","","","","","","","","",""
"72503014732","2020-05-10T10:00:00","FM-12","4","","","","","","","","","","","","","","","","","","","","","","","","","","","","","","","","","","","","","","","22","54","","","+0.03","8","29","30.09","41","30.05","9.94","41","240","","20","","","","","","","","","","","","","","","","","","","","","","","","","","","","","","","","","","","","","SYN07472503 32666 42417 10122 21056 30176 40188 58009 91451 333 91024 555 91015=","FM-12","4","","","","","","","","","","","","","","","","","","","","","","","","","","","",""
"72503014732","2020-05-10T10:51:00","FM-15","7","","","","","","","","","","","","","","","","","","","","","","","","","","","","","","","","","","","","","","30.06","23","57","0.00","","","","27","30.06","FEW:02 50 SCT:04 90 SCT:04 190","30.03","10.00","43","220","25","17","","","","","","","","","","","","","","","","","","","","","","","","","","","","","","","","","","","","","MET11705/10/20 10:51:02 METAR KLGA 101551Z 22015G22KT 10SM FEW050 SCT090 SCT190 14/M05 A3006 RMK AO2 SLP180 T01391050 (ATK)","FM-15","7","","","","","","","","","","","","","","","","","","","","","","","","","","","",""
"72503014732","2020-05-10T11:51:00","FM-15","7","","","","","","","","","","","","","","","","","","","","","","","","","","","","","","","","","","","","","","30.04","19","60","0.00","","","","20","30.04","FEW:02 60 SCT:04 90 SCT:04 180","30.01","10.00","43","250","29","18","","","","","","","","","","","","","","","","","","","","","","","","","","","","","","","","","","","","","MET11705/10/20 11:51:02 METAR KLGA 101651Z 25016G25KT 10SM FEW060 SCT090 SCT180 16/M07 A3004 RMK AO2 SLP172 T01561072 (ATK)","FM-15","7","","","","","","","","","","","","","","","","","","","","","","","","","","","",""
"72503014732","2020-05-10T12:51:00","FM-15","7","","","","","","","","","","","","","","","","","","","","","","","","","","","","","","","","","","","","","","30.03","19","62","0.00","","+0.06","6","19","30.03","FEW:02 60 SCT:04 90 SCT:04 170","30.00","10.00","44","270","26","17","","","","","","","","","","","","","","","","","","","","","","","","","","","","","","","","","","","","","MET15305/10/20 12:51:02 METAR KLGA 101751Z 27015G23KT 10SM FEW060 SCT090 SCT170 17/M07 A3003 RMK AO2 PK WND 27026/1704 SLP168 T01671072 10167 20067 56020 (ATK)","FM-15","7","","","","","","","","","","","","","","","","","","","","","","","","","","","",""
"72503014732","2020-05-10T13:00:00","FM-12","4","","","","","","","","","","","","","","","","","","","","","","","","","","","","","","","","","","","","","","","19","62","","","+0.06","6","19","30.03","57","29.99","9.94","44","270","","17","","","","","","","","","","","","","","","","","","","","","","","","","","","","","","","","","","","","","SYN08672503 32766 62715 10167 21072 30156 40168 56020 91751 333 10167 20061 91023 555 91018=","FM-12","4","","","","","","","","","","","","","","","","","","","","","","","","","","","",""
"72503014732","2020-05-10T13:51:00","FM-15","7","","","","","","","","","","","","","","","","","","","","","","","","","","","","","","","","","","","","","","30.00","21","63","0.00","","","","20","30.00","FEW:02 60 FEW:02 90 SCT:04 170","29.97","10.00","45","250","26","21","","","","","","","","","","","","","","","","","","","","","","","","","","","","","","","","","","","","","MET13505/10/20 13:51:02 METAR KLGA 101851Z 25018G23KT 10SM FEW060 FEW090 SCT170 17/M06 A3000 RMK AO2 PK WND 27028/1836 SLP158 T01721061 (ATK)","FM-15","7","","","","","","","","","","","","","","","","","","","","","","","","","","","",""
"72503014732","2020-05-10T14:51:00","FM-15","7","","","","","","","","","","","","","","","","","","","","","","","","","","","","","","","","","","","","","","29.98","22","64","0.00","","","","20","29.98","FEW:02 60 FEW:02 90 SCT:04 170","29.95","10.00","46","270","","16","","","","","","","","","","","","","","","","","","","","","","","","","","","","","","","","","","","","","MET13205/10/20 14:51:02 METAR KLGA 101951Z 27014KT 10SM FEW060 FEW090 SCT170 18/M06 A2998 RMK AO2 PK WND 27027/1859 SLP151 T01781056 (ATK)","FM-15","7","","","","","","","","","","","","","","","","","","","","","","","","","","","",""
"72503014732","2020-05-10T15:51:00","FM-15","7","","","","","","","","","","","","","","","","","","","","","","","","","","","","","","","","","","","","","","29.96","24","65","0.00","","+0.07","6","21","29.96","FEW:02 60 FEW:02 90 SCT:04 170","29.93","10.00","47","230","26","17","","","","","","","","","","","","","","","","","","","","","","","","","","","","","","","","","","","","","MET12305/10/20 15:51:02 METAR KLGA 102051Z 23015G23KT 10SM FEW060 FEW090 SCT170 18/M04 A2996 RMK AO2 SLP145 T01831044 56023 (ATK)","FM-15","7","","","","","","","","","","","","","","","","","","","","","","","","","","","",""
"72503014732","2020-05-10T16:00:00","FM-12","4","","","","","","","","","","","","","","","","","","","","","","","","","","","","","","","","","","","","","","","24","65","","","+0.07","6","21","29.96","57","29.92","9.94","47","230","","17","","","","","","","","","","","","","","","","","","","","","","","","","","","","","","","","","","","","","SYN07472503 32766 42315 10183 21044 30132 40145 56023 92051 333 91023 555 91021=","FM-12","4","","","","","","","","","","","","","","","","","","","","","","","","","","","",""
"72503014732","2020-05-10T16:51:00","FM-15","7","","","","","","","","","","","","","","","","","","","","","","","","","","","","","","","","","","","","","","29.96","24","64","0.00","","","","22","29.96","FEW:02 60 FEW:02 90 SCT:04 150","29.93","10.00","47","220","24","16","","","","","","","","","","","","","","","","","","","","","","","","","","","","","","","","","","","","","MET12405/10/20 16:51:02 METAR KLGA 102151Z 22014G21KT 10SM FEW060 FEW090 SCT150 18/M04 A2996 RMK AO2 SLP144 ACSL N T01781044 (ATK)","FM-15","7","","","","","","","","","","","","","","","","","","","","","","","","","","","",""
"72503014732","2020-05-10T17:51:00","FM-15","7","","","","","","","","","","","","","","","","","","","","","","","","","","","","","","","","","","","","","","29.95","25","64","0.00","","","","23","29.95","FEW:02 55 SCT:04 150 SCT:04 250","29.92","10.00","47","VRB","25","17","","","","","","","","","","","","","","","","","","","","","","","","","","","","","","","","","","","","","MET13505/10/20 17:51:02 METAR KLGA 102251Z 26015G22KT 10SM FEW055 SCT150 SCT250 18/M04 A2995 RMK AO2 PK WND 24026/2219 SLP142 T01781039 (ATK)","FM-15","7","","","","","","","","","","","","","","","","","","","","","","","","","","","",""
"72503014732","2020-05-10T18:51:00","FM-15","7","","","","","","","","","","","","","","","","","","","","","","","","","","","","","","","","","","","","","","29.96","25","63","0.00","","+0.00","5","24","29.96","FEW:02 60 SCT:04 90 SCT:04 190","29.93","10.00","46","250","","10","","","","","","","","","","","","","","","","","","","","","","","","","","","","","","","","","","","","","MET13205/10/20 18:51:02 METAR KLGA 102351Z 25009KT 10SM FEW060 SCT090 SCT190 17/M04 A2996 RMK AO2 SLP144 T01721039 10183 20167 55001 (ATK)","FM-15","7","","","","","","","","","","","","","","","","","","","","","","","","","","","",""
"72503014732","2020-05-10T19:00:00","FM-12","4","","","","","","","","","","","","","","","","","","","","","","","","","","","","","","","","","","","","","","","25","63","","","+0.00","5","24","29.96","57","29.92","9.94","46","250","","10","","","","","","","","","","","","","","","","","","","","","","","","","","","","","","","","","","","","","SYN08072503 32766 62509 10172 21039 30132 40144 55001 92351 333 10183 20050 555 91100=","FM-12","4","","","","","","","","","","","","","","","","","","","","","","","","","","","",""
"72503014732","2020-05-10T19:51:00","FM-15","7","","","","","","","","","","","","","","","","","","","","","","","","","","","","","","","","","","","","","","29.97","27","61","0.00","","","","27","29.97","FEW:02 90 SCT:04 180 BKN:07 250","29.94","10.00","46","220","","13","","","","","","","","","","","","","","","","","","","","","","","","","","","","","","","","","","","","","MET10805/10/20 19:51:01 METAR KLGA 110051Z 22011KT 10SM FEW090 SCT180 BKN250 16/M03 A2997 RMK AO2 SLP148 T01611028","FM-15","7","","","","","","","","","","","","","","","","","","","","","","","","","","","",""
"72503014732","2020-05-10T20:51:00","FM-15","7","","","","","","","","","","","","","","","","","","","","","","","","","","","","","","","","","","","","","","29.98","28","59","0.00","","","","31","29.98","FEW:02 90 BKN:07 180 BKN:07 250","29.95","10.00","45","220","21","14","","","","","","","","","","","","","","","","","","","","","","","","","","","","","","","","","","","","","MET11105/10/20 20:51:01 METAR KLGA 110151Z 22012G18KT 10SM FEW090 BKN180 BKN250 15/M02 A2998 RMK AO2 SLP151 T01501022","FM-15","7","","","","","","","","","","","","","","","","","","","","","","","","","","","",""
"72503014732","2020-05-10T21:51:00","FM-15","7","","","","","","","","","","","","","","","","","","","","","","","","","","","","","","","","","","","","","","29.98","28","58","0.00","","-0.02","1","32","29.98","FEW:02 90 SCT:04 120 BKN:07 160","29.95","10.00","45","220","","15","","","","","","","","","","","","","","","","","","","","","","","","","","","","","","","","","","","","","MET11405/10/20 21:51:01 METAR KLGA 110251Z 22013KT 10SM FEW090 SCT120 BKN160 14/M02 A2998 RMK AO2 SLP151 T01441022 51007","FM-15","7","","","","","","","","","","","","","","","","","","","","","","","","","","","",""
"72503014732","2020-05-10T22:00:00","FM-12","4","","","","","","","","","","","","","","","","","","","","","","","","","","","","","","","","","","","","","","","28","58","","","-0.02","1","32","29.98","","29.94","9.94","45","220","","15","","","","","","","","","","","","","","","","","","","","","","","","","","","","","","","","","","","","","SYN06472503 32966 62213 10144 21022 30139 40151 51007 90251 555 91103=","FM-12","4","","","","","","","","","","","","","","","","","","","","","","","","","","","",""
"72503014732","2020-05-10T22:51:00","FM-15","7","","","","","","","","","","","","","","","","","","","","","","","","","","","","","","","","","","","","","","29.97","29","57","0.00","","","","34","29.97","FEW:02 100 SCT:04 160 BKN:07 250","29.94","10.00","45","220","","11","","","","","","","","","","","","","","","","","","","","","","","","","","","","","","","","","","","","","MET10805/10/20 22:51:02 METAR KLGA 110351Z 22010KT 10SM FEW100 SCT160 BKN250 14/M02 A2997 RMK AO2 SLP149 T01391017","FM-15","7","","","","","","","","","","","","","","","","","","","","","","","","","","","",""
"72503014732","2020-05-10T23:51:00","FM-15","7","","","","","","","","","","","","","","","","","","","","","","","","","","","","","","","","","","","","","","29.97","31","55","0.00","","","","40","29.96","FEW:02 100 BKN:07 140 BKN:07 250","29.94","10.00","44","210","22","16","","","","","","","","","","","","","","","","","","","","","","","","","","","","","","","","","","","","","MET12105/10/20 23:51:02 METAR KLGA 110451Z 21014G19KT 10SM FEW100 BKN140 BKN250 13/M01 A2997 RMK AO2 SLP147 T01281006 401830050","FM-15","7","","","","","","","","","","","","","","","","","","","","","","","","","","","",""
"72503014732","2020-05-10T23:59:00","SOD  ","6","","","","","","","","","","","","","","","23","53","31","30.03","30.01","41","15.6","0","-7.7","12","65","41","240","34","0.00","0","0.0","260","25","","","","","","","","","","","","","","","","","","","","","","","","","","","","","","","","","","","","","","","","","","","","","","","","","","","","","","","","","SOD73924 HR PRECIPITATION (IN): 0.00 SNOW DEPTH (IN):0     24 HR SNOWFALL (IN):0.0  24 HR MAX TEMP (F): 6524 HR MIN TEMP (F): 41AVERAGE STATION PRESSURE:30.005 MINIMUM SEA LEVEL PRESSURE:29.95 TIME OF OCCURRENCE:1908 PEAK WIND SPEED (MPH): 34 PEAK WIND DIR (DEG):240 PEAK WIND TIME (LST):      FASTEST 2MIN SPEED (MPH): 25FASTEST 2MIN DIR (DEG):260 FASTEST 2MIN TIME (LST):     AVERAGE WIND SPEED (MPH):15.6 24 HR AVG TEMP (F): 53DEPART FROM NORMAL: -8  HEATING DEGREE DAYS: 12 COOLING DEGREE DAYS:  0 LATEST DAY MAX TEMP (0700-1900 LST):65  LATEST NIGHT MIN TEMP(1900-0800 LST):41 HOURLY INCREMENTAL PRECIPITATION VALUES (IN):.00 0.00 0.00 0.00 0.00 0.00 0.00 0.00 0.00 0.00 0.00 0.00 0.00 0.00 0.00 0.00 0.00 0.00 0.00 0.00 0.00 0.00 0.00 0.00","SOD  ","6","","","","","","","","","","","","","","","","","","","","","","","","","0443","1902","",""
"72503014732","2020-05-11T00:51:00","FM-15","7","","","","","","","","","","","","","","","","","","","","","","","","","","","","","","","","","","","","","","29.94","33","54","0.00","","+0.04","8","45","29.94","FEW:02 100 BKN:07 130 BKN:07 250","29.91","10.00","45","210","21","11","","","","","","","","","","","","","","","","","","","","","","","","","","","","","","","","","","","","","MET13305/11/20 00:51:02 METAR KLGA 110551Z 21010G18KT 10SM FEW100 BKN130 BKN250 12/01 A2994 RMK AO2 SLP139 T01220006 10172 20122 58012 (DM)","FM-15","7","","","","","","","","","","","","","","","","","","","","","","","","","","","",""
"72503014732","2020-05-11T01:00:00","FM-12","4","","","","","","","","","","","","","","","","","","","","","","","","","","","","","","","","","","","","","","","33","54","","","+0.04","8","45","29.94","","29.90","9.94","45","210","","11","","","","","","","","","","","","","","","","","","","","","","","","","","","","","","","","","","","","","SYN08672503 32966 62110 10122 20006 30125 40139 58012 90551 333 10172 20050 91018 555 91106=","FM-12","4","","","","","","","","","","","","","","","","","","","","","","","","","","","",""
"72503014732","2020-05-11T01:51:00","FM-15","7","","","","","","","","","","","","","","","","","","","","","","","","","","","","","","","","","","","","","","29.91","36","54","0.00","","","","51","29.91","FEW:02 100 SCT:04 130 BKN:07 250","29.88","10.00","46","210","","11","","","","","","","","","","","","","","","","","","","","","","","","","","","","","","","","","","","","","MET11205/11/20 01:51:02 METAR KLGA 110651Z 21010KT 10SM FEW100 SCT130 BKN250 12/02 A2991 RMK AO2 SLP128 T01220022 (DM)","FM-15","7","","","","","","","","","","","","","","","","","","","","","","","","","","","",""
"72503014732","2020-05-11T02:51:00","FM-15","7","","","","","","","","","","","","","","","","","","","","","","","","","","","","","","","","","","","","","","29.89","37","52","0.00","","","","57","29.89","SCT:04 250","29.86","10.00","45","190","","6","","","","","","","","","","","","","","","","","","","","","","","","","","","","","","","","","","","","","MET09805/11/20 02:51:02 METAR KLGA 110751Z 19005KT 10SM SCT250 11/03 A2989 RMK AO2 SLP123 T01110028 (DM)","FM-15","7","","","","","","","","","","","","","","","","","","","","","","","","","","","",""
"72503014732","2020-05-11T03:51:00","FM-15","7","","","","","","","","","","","","","","","","","","","","","","","","","","","","","","","","","","","","","","29.88","38","51","0.00","","+0.07","6","61","29.87","FEW:02 100 SCT:04 250","29.85","10.00","45","150","","5","","","","","","","","","","","","","","","","","","","","","","","","","","","","","","","","","","","","","MET11105/11/20 03:51:02 METAR KLGA 110851Z 15004KT 10SM FEW100 SCT250 11/03 A2988 RMK AO2 SLP116 T01060033 56023 (DM)","FM-15","7","","","","","","","","","","","","","","","","","","","","","","","","","","","",""
"72503014732","2020-05-11T04:00:00","FM-12","4","","","","","","","","","","","","","","","","","","","","","","","","","","","","","","","","","","","","","","","38","51","","","+0.07","6","61","29.87","","29.84","9.94","45","150","","5","","","","","","","","","","","","","","","","","","","","","","","","","","","","","","","","","","","","","SYN06472503 32966 41504 10106 20033 30105 40116 56023 90851 555 91109=","FM-12","4","","","","","","","","","","","","","","","","","","","","","","","","","","","",""
"72503014732","2020-05-11T04:51:00","FM-15","7","","","","","","","","","","","","","","","","","","","","","","","","","","","","","","","","","","","","","","29.88","40","51","0.00","","","","66","29.88","BKN:07 100 BKN:07 250","29.85","10.00","46","220","","5","","","","","","","","","","","","","","","","","","","","","","","","","","","","","","","","","","","","","MET10505/11/20 04:51:02 METAR KLGA 110951Z 22004KT 10SM BKN100 BKN250 11/04 A2988 RMK AO2 SLP117 T01060044 (DM)","FM-15","7","","","","","","","","","","","","","","","","","","","","","","","","","","","",""
"72503014732","2020-05-11T05:51:00","FM-15","7","","","","","","","","","","","","","","","","","","","","","","","","","","","","","","","","","","","","","","29.86","42","52","0.00","","","","69","29.85","SCT:04 120 BKN:07 250","29.83","10.00","47","210","","3","","","","","","","","","","","","","","","","","","","","","","","","","","","","","","","","","","","","","MET10505/11/20 05:51:02 METAR KLGA 111051Z 21003KT 10SM SCT120 BKN250 11/06 A2986 RMK AO2 SLP110 T01110056 (PS)","FM-15","7","","","","","","","","","","","","","","","","","","","","","","","","","","","",""
"72503014732","2020-05-11T06:51:00","FM-15","7","","","","","","","","","","","","","","","","","","","","","","","","","","","","","","","","","","","","","","29.87","42","54","0.00","","+0.01","5","64","29.87","FEW:02 37 FEW:02 110 OVC:08 170","29.84","10.00","48","210","","10","","","","","","","","","","","","","","","","","","","","","","","","","","","","","","","","","","","","","MET13005/11/20 06:51:02 METAR KLGA 111151Z 21009KT 10SM FEW037 FEW110 OVC170 12/06 A2987 RMK AO2 SLP114 T01220056 10122 20100 55002 (PS)","FM-15","7","","","","","","","","","","","","","","","","","","","","","","","","","","","",""
"72503014732","2020-05-11T07:00:00","FM-12","4","","","","","","","","","","","","","","","","","","","","","","","","","","","","","","","","","","","","","","","42","54","","","+0.01","5","64","29.87","41","29.83","9.94","48","210","","10","","","","","","","","","","","","","","","","","","","","","","","","","","","","","","","","","","","","","SYN08072503 32666 82109 10122 20056 30101 40114 55002 91151 333 10183 20100 555 91112=","FM-12","4","","","","","","","","","","","","","","","","","","","","","","","","","","","",""
"72503014732","2020-05-11T07:51:00","FM-15","7","","","","","","","","","","","","","","","","","","","","","","","","","","","","","","","","","","","","","","29.86","42","54","0.00","","","","64","29.85","FEW:02 40 BKN:07 100 OVC:08 200","29.83","10.00","48","290","","7","","","","","","","","","","","","","","","","","","","","","","","","","","","","","","","","","","","","","MET11205/11/20 07:51:02 METAR KLGA 111251Z 29006KT 10SM FEW040 BKN100 OVC200 12/06 A2986 RMK AO2 SLP110 T01220056 (PS)","FM-15","7","","","","","","","","","","","","","","","","","","","","","","","","","","","",""
"72503014732","2020-05-11T08:51:00","FM-15","7","","","","","","","","","","","","","","","","","","","","","","","","","","","","","","","","","","","","","","29.87","44","52","0.02","-RA:02 |RA |RA","","","75","29.87","FEW:02 20 BKN:07 50 BKN:07 250","29.84","10.00","48","260","","17","","","","","","","","","","","","","","","","","","","","","","","","","","","","","","","","","","","","","MET12805/11/20 08:51:02 METAR KLGA 111351Z 26015KT 10SM -RA FEW020 BKN050 BKN250 11/07 A2987 RMK AO2 RAB18 SLP115 P0002 T01110067 (PS)","FM-15","7","","","","","","","","","","","","","","","","","","","","","","","","","","","",""
"72503014732","2020-05-11T09:51:00","FM-15","7","","","","","","","","","","","","","","","","","","","","","","","","","","","","","","","","","","","","","","29.85","43","54","T","","+0.02","8","67","29.85","FEW:02 42 BKN:07 65 BKN:07 85","29.82","10.00","49","230","","3","","","","","","","","","","","","","","","","","","","","","","","","","","","","","","","","","","","","","MET13605/11/20 09:51:02 METAR KLGA 111451Z 23003KT 10SM FEW042 BKN065 BKN085 12/06 A2985 RMK AO2 RAE01 SLP108 P0000 60002 T01220061 58007 (PS)","FM-15","7","","","","","","","","","","","","","","","","","","","","","","","","","","","",""
"72503014732","2020-05-11T10:00:00","FM-12","4","","","","","","","","","","","","","","","","","","","","","","","","","","","","","","","","","","","","","","","43","54","","","+0.02","8","67","29.85","41","29.81","9.94","49","230","","3","","","","","","","","","","","","","","","","","","","","","","","","","","","","","","","","","","","","","SYN07072503 12666 82303 10122 20061 30095 40108 58007 69957 91451 555 91115=","FM-12","4","","","","","","","","","","","","","","","","","","","","","","","","","","","",""
"72503014732","2020-05-11T10:51:00","FM-15","7","","","","","","","","","","","","","","","","","","","","","","","","","","","","","","","","","","","","","","29.83","40","56","0.00","","","","55","29.83","FEW:02 38 BKN:07 70 OVC:08 250","29.80","10.00","48","250","","11","","","","","","","","","","","","","","","","","","","","","","","","","","","","","","","","","","","","","MET11205/11/20 10:51:02 METAR KLGA 111551Z 25010KT 10SM FEW038 BKN070 OVC250 13/04 A2983 RMK AO2 SLP101 T01330044 (PS)","FM-15","7","","","","","","","","","","","","","","","","","","","","","","","","","","","",""
"72503014732","2020-05-11T11:51:00","FM-15","7","","","","","","","","","","","","","","","","","","","","","","","","","","","","","","","","","","","","","","29.81","42","57","0.00","","","","58","29.81","BKN:07 38 BKN:07 65 BKN:07 90","29.78","10.00","50","280","","6","","","","","","","","","","","","","","","","","","","","","","","","","","","","","","","","","","","","","MET11205/11/20 11:51:02 METAR KLGA 111651Z 28005KT 10SM BKN038 BKN065 BKN090 14/06 A2981 RMK AO2 SLP094 T01390056 (PS)","FM-15","7","","","","","","","","","","","","","","","","","","","","","","","","","","","",""
"72503014732","2020-05-11T12:51:00","FM-15","7","","","","","","","","","","","","","","","","","","","","","","","","","","","","","","","","","","","","","","29.79","45","56","0.06","","+0.06","8","67","29.79","FEW:02 34 BKN:07 50 BKN:07 70","29.76","10.00","50","190","","9","","","","","","","","","","","","","","","","","","","","","","","","","","","","","","","","","","","","","MET16205/11/20 12:51:02 METAR KLGA 111751Z 19008KT 10SM FEW034 BKN050 BKN070 13/07 A2979 RMK AO2 RAB06E29 SLP087 VIRGA NE-E P0006 60008 T01330072 10144 20111 58021 (PS)","FM-15","7","","","","","","","","","","","","","","","","","","","","","","","","","","","",""
"72503014732","2020-05-11T13:00:00","FM-12","4","","","","","","","","","","","","","","","","","","","","","","","","","","","","","","","","","","","","","","","45","56","","","+0.06","8","67","29.79","41","29.75","9.94","50","190","","9","","","","","","","","","","","","","","","","","","","","","","","","","","","","","","","","","","","","","SYN08672503 12666 61908 10133 20072 30074 40087 58021 60021 91751 333 10144 20111 555 91118=","FM-12","4","","","","","","","","","","","","","","","","","","","","","","","","","","","",""
"72503014732","2020-05-11T13:51:00","FM-15","7","","","","","","","","","","","","","","","","","","","","","","","","","","","","","","","","","","","","","","29.78","42","59","0.00","","","","54","29.78","SCT:04 48 BKN:07 60 BKN:07 70","29.75","10.00","50","250","16","10","","","","","","","","","","","","","","","","","","","","","","","","","","","","","","","","","","","","","MET11505/11/20 13:51:02 METAR KLGA 111851Z 25009G14KT 10SM SCT048 BKN060 BKN070 15/06 A2978 RMK AO2 SLP084 T01500056 (WL)","FM-15","7","","","","","","","","","","","","","","","","","","","","","","","","","","","",""
"72503014732","2020-05-11T14:46:00","FM-16","7","","","","","","","","","","","","","","","","","","","","","","","","","","","","","","","","","","","","","","29.78","34","59","","SQ:2 |SQ |","","","39","","FEW:02 40 BKN:07 65 BKN:07 85","29.75","10.00","47","270","43","33","","","","","","","","","","","","","","","","","","","","","","","","","","","","","","","","","","","","","MET11905/11/20 14:46:02 SPECI KLGA 111946Z 27029G37KT 10SM SQ FEW040 BKN065 BKN085 15/01 A2978 RMK AO2 PK WND 27037/1945 (WL)","FM-16","7","","","","","","","","","","","","","","","","","","","","","","","","","","","",""
"72503014732","2020-05-11T14:51:00","FM-15","7","","","","","","","","","","","","","","","","","","","","","","","","","","","","","","","","","","","","","","29.79","36","56","T","SQ:2 |SQ |","","","47","29.78","FEW:02 40 BKN:07 65 BKN:07 85","29.76","10.00","47","290","43","29","","","","","","","","","","","","","","","","","","","","","","","","","","","","","","","","","","","","","MET14305/11/20 14:51:02 METAR KLGA 111951Z 29025G37KT 10SM SQ FEW040 BKN065 BKN085 13/02 A2979 RMK AO2 PK WND 27037/1945 PRESRR SLP086 T01330022 (WL)","FM-15","7","","","","","","","","","","","","","","","","","","","","","","","","","","","",""
"72503014732","2020-05-11T15:51:00","FM-15","7","","","","","","","","","","","","","","","","","","","","","","","","","","","","","","","","","","","","","","29.78","36","59","0.00","","+0.00","8","42","29.78","FEW:02 40 SCT:04 60 BKN:07 110","29.75","10.00","48","260","","13","","","","","","","","","","","","","","","","","","","","","","","","","","","","","","","","","","","","","MET16105/11/20 15:51:02 METAR KLGA 112051Z 26011KT 10SM FEW040 SCT060 BKN110 15/02 A2978 RMK AO2 PK WND 29031/1952 RAB1955E1957 SLP083 P0000 60000 T01500022 58001 (WL)","FM-15","7","","","","","","","","","","","","","","","","","","","","","","","","","","","",""
"72503014732","2020-05-11T16:00:00","FM-12","4","","","","","","","","","","","","","","","","","","","","","","","","","","","","","","","","","","","","","","","36","59","","","+0.00","8","42","29.78","41","29.74","9.94","48","260","","13","","","","","","","","","","","","","","","","","","","","","","","","","","","","","","","","","","","","","SYN07072503 12666 62611 10150 20022 30071 40083 58001 69907 92051 555 91121=","FM-12","4","","","","","","","","","","","","","","","","","","","","","","","","","","","",""
"72503014732","2020-05-11T16:51:00","FM-15","7","","","","","","","","","","","","","","","","","","","","","","","","","","","","","","","","","","","","","","29.80","42","53","0.02","","","","66","29.80","FEW:02 40 SCT:04 60 BKN:07 110","29.77","10.00","48","240","","9","","","","","","","","","","","","","","","","","","","","","","","","","","","","","","","","","","","","","MET14505/11/20 16:51:02 METAR KLGA 112151Z 24008KT 10SM FEW040 SCT060 BKN110 12/06 A2980 RMK AO2 PK WND 27044/2108 RAB10E49 SLP092 P0002 T01170056 (WL)","FM-15","7","","","","","","","","","","","","","","","","","","","","","","","","","","","",""
"72503014732","2020-05-11T17:51:00","FM-15","7","","","","","","","","","","","","","","","","","","","","","","","","","","","","","","","","","","","","","","29.82","41","56","0.00","","","","57","29.82","SCT:04 80","29.79","10.00","49","280","26","23","","","","","","","","","","","","","","","","","","","","","","","","","","","","","","","","","","","","","MET10105/11/20 17:51:02 METAR KLGA 112251Z 28020G23KT 10SM SCT080 13/05 A2982 RMK AO2 SLP097 T01330050 (WL)","FM-15","7","","","","","","","","","","","","","","","","","","","","","","","","","","","",""
"72503014732","2020-05-11T18:51:00","FM-15","7","","","","","","","","","","","","","","","","","","","","","","","","","","","","","","","","","","","","","","29.85","39","52","T","","-0.07","3","61","29.85","SCT:04 60 BKN:07 75 BKN:07 90","29.82","10.00","46","300","","18","","","","","","","","","","","","","","","","","","","","","","","","","","","","","","","","","","","","","MET16905/11/20 18:51:02 METAR KLGA 112351Z 30016KT 10SM SCT060 BKN075 BKN090 11/04 A2985 RMK AO2 PK WND 30030/2255 RAB25E34 SLP108 P0000 60002 T01110039 10161 20106 53025 (WL)","FM-15","7","","","","","","","","","","","","","","","","","","","","","","","","","","","",""
"72503014732","2020-05-11T19:00:00","FM-12","4","","","","","","","","","","","","","","","","","","","","","","","","","","","","","","","","","","","","","","","39","52","","","-0.07","3","61","29.85","57","29.81","9.94","46","300","","18","","","","","","","","","","","","","","","","","","","","","","","","","","","","","","","","","","","","","SYN08672503 12766 63016 10111 20039 30095 40108 53025 69951 92351 333 10161 20100 555 91200=","FM-12","4","","","","","","","","","","","","","","","","","","","","","","","","","","","",""
"72503014732","2020-05-11T19:51:00","FM-15","7","","","","","","","","","","","","","","","","","","","","","","","","","","","","","","","","","","","","","","29.87","37","52","0.00","","","","57","29.87","FEW:02 36 BKN:07 42 BKN:07 90","29.84","10.00","45","300","24","15","","","","","","","","","","","","","","","","","","","","","","","","","","","","","","","","","","","","","MET11005/11/20 19:51:01 METAR KLGA 120051Z 30013G21KT 10SM FEW036 BKN042 BKN090 11/03 A2987 RMK AO2 SLP116 T01110028","FM-15","7","","","","","","","","","","","","","","","","","","","","","","","","","","","",""
"72503014732","2020-05-11T20:51:00","FM-15","7","","","","","","","","","","","","","","","","","","","","","","","","","","","","","","","","","","","","","","29.91","36","50","0.00","","","","59","29.91","BKN:07 37 BKN:07 70","29.88","10.00","44","300","32","22","","","","","","","","","","","","","","","","","","","","","","","","","","","","","","","","","","","","","MET12105/11/20 20:51:01 METAR KLGA 120151Z 30019G28KT 10SM BKN037 BKN070 10/02 A2991 RMK AO2 PK WND 30028/0150 SLP128 T01000022","FM-15","7","","","","","","","","","","","","","","","","","","","","","","","","","","","",""
"72503014732","2020-05-11T21:51:00","FM-15","7","","","","","","","","","","","","","","","","","","","","","","","","","","","","","","","","","","","","","","29.93","32","48","0.00","","-0.07","1","54","29.92","FEW:02 34","29.90","10.00","41","300","36","25","","","","","","","","","","","","","","","","","","","","","","","","","","","","","","","","","","","","","MET12005/11/20 21:51:01 METAR KLGA 120251Z 30022G31KT 10SM FEW034 09/00 A2993 RMK AO2 PK WND 29034/0230 SLP133 T00890000 51025","FM-15","7","","","","","","","","","","","","","","","","","","","","","","","","","","","",""
"72503014732","2020-05-11T22:00:00","FM-12","4","","","","","","","","","","","","","","","","","","","","","","","","","","","","","","","","","","","","","","","32","48","","","-0.07","1","54","29.92","41","29.89","9.94","41","300","","25","","","","","","","","","","","","","","","","","","","","","","","","","","","","","","","","","","","","","SYN07472503 32666 23022 10089 20000 30122 40133 51025 90251 333 91031 555 91203=","FM-12","4","","","","","","","","","","","","","","","","","","","","","","","","","","","",""
"72503014732","2020-05-11T22:51:00","FM-15","7","","","","","","","","","","","","","","","","","","","","","","","","","","","","","","","","","","","","","","29.94","31","47","0.00","","","","54","29.93","CLR:00","29.91","10.00","40","310","29","20","","","","","","","","","","","","","","","","","","","","","","","","","","","","","","","","","","","","","MET11205/11/20 22:51:02 METAR KLGA 120351Z 31017G25KT 10SM CLR 08/M01 A2994 RMK AO2 PK WND 32032/0258 SLP137 T00831006","FM-15","7","","","","","","","","","","","","","","","","","","","","","","","","","","","",""
"72503014732","2020-05-11T23:51:00","FM-15","7","","","","","","","","","","","","","","","","","","","","","","","","","","","","","","","","","","","","","","29.95","32","46","0.00","","","","58","29.95","CLR:00","29.92","10.00","40","300","","16","","","","","","","","","","","","","","","","","","","","","","","","","","","","","","","","","","","","","MET10005/11/20 23:51:02 METAR KLGA 120451Z 30014KT 10SM CLR 08/00 A2995 RMK AO2 SLP141 T00780000 401610078","FM-15","7","","","","","","","","","","","","","","","","","","","","","","","","","","","",""
"72503014732","2020-05-11T23:59:00","SOD  ","6","","","","","","","","","","","","","","","39","54","59","29.86","29.83","46","12.7","0","-7.0","11","61","46","270","50","0.10","0","0.0","270","38","RA","","","","","","","","","","","","","","","","","","","","","","","","","","","","","","","","","","","","","","","","","","","","","","","","","","","","","","","","SOD73924 HR PRECIPITATION (IN): 0.10 SNOW DEPTH (IN):0     24 HR SNOWFALL (IN):0.0  24 HR MAX TEMP (F): 6124 HR MIN TEMP (F): 46AVERAGE STATION PRESSURE:29.825 MINIMUM SEA LEVEL PRESSURE:29.76 TIME OF OCCURRENCE:1440 PEAK WIND SPEED (MPH): 50 PEAK WIND DIR (DEG):270 PEAK WIND TIME (LST):      FASTEST 2MIN SPEED (MPH): 38FASTEST 2MIN DIR (DEG):270 FASTEST 2MIN TIME (LST):     AVERAGE WIND SPEED (MPH):12.7 24 HR AVG TEMP (F): 54DEPART FROM NORMAL: -7  HEATING DEGREE DAYS: 11 COOLING DEGREE DAYS:  0 LATEST DAY MAX TEMP (0700-1900 LST):61  LATEST NIGHT MIN TEMP(1900-0800 LST):50 HOURLY INCREMENTAL PRECIPITATION VALUES (IN):.00 0.00 0.00 0.00 0.00 0.00 0.00 0.00 0.02 T    0.00 0.00 0.06 0.00 T    0.00 0.02 0.00 T    0.00 0.00 0.00 0.00 0.00","SOD  ","6","","","","","","","","","","","","","","","","","","","","","","","","","0442","1903","",""
"72503014732","2020-05-12T00:51:00","FM-15","7","","","","","","","","","","","","","","","","","","","","","","","","","","","","","","","","","","","","","","29.95","32","45","0.00","","-0.03","1","61","29.95","FEW:02 55","29.92","10.00","40","300","","15","","","","","","","","","","","","","","","","","","","","","","","","","","","","","","","","","","","","","MET11605/12/20 00:51:02 METAR KLGA 120551Z 30013KT 10SM FEW055 07/00 A2995 RMK AO2 SLP143 T00720000 10117 20072 51009 (RZ)","FM-15","7","","","","","","","","","","","","","","","","","","","","","","","","","","","",""
"72503014732","2020-05-12T01:00:00","FM-12","4","","","","","","","","","","","","","","","","","","","","","","","","","","","","","","","","","","","","","","","32","45","","","-0.03","1","61","29.95","57","29.91","9.94","40","300","","15","","","","","","","","","","","","","","","","","","","","","","","","","","","","","","","","","","","","","SYN08072503 32766 23013 10072 20000 30129 40143 51009 90551 333 10122 20072 555 91206=","FM-12","4","","","","","","","","","","","","","","","","","","","","","","","","","","","",""
"72503014732","2020-05-12T01:51:00","FM-15","7","","","","","","","","","","","","","","","","","","","","","","","","","","","","","","","","","","","","","","29.95","32","45","0.00","","","","61","29.95","FEW:02 35","29.92","10.00","40","300","","13","","","","","","","","","","","","","","","","","","","","","","","","","","","","","","","","","","","","","MET09805/12/20 01:51:02 METAR KLGA 120651Z 30011KT 10SM FEW035 07/00 A2995 RMK AO2 SLP142 T00720000 (RZ)","FM-15","7","","","","","","","","","","","","","","","","","","","","","","","","","","","",""
"72503014732","2020-05-12T02:51:00","FM-15","7","","","","","","","","","","","","","","","","","","","","","","","","","","","","","","","","","","","","","","29.96","33","45","0.00","","","","63","29.96","BKN:07 50","29.93","10.00","40","300","24","15","","","","","","","","","","","","","","","","","","","","","","","","","","","","","","","","","","","","","MET10105/12/20 02:51:02 METAR KLGA 120751Z 30013G21KT 10SM BKN050 07/01 A2996 RMK AO2 SLP145 T00720006 (RZ)","FM-15","7","","","","","","","","","","","","","","","","","","","","","","","","","","","",""
"72503014732","2020-05-12T03:51:00","FM-15","7","","","","","","","","","","","","","","","","","","","","","","","","","","","","","","","","","","","","","","29.96","33","46","0.00","","-0.01","3","61","29.96","SCT:04 55","29.93","10.00","40","300","26","15","","","","","","","","","","","","","","","","","","","","","","","","","","","","","","","","","","","","","MET10705/12/20 03:51:02 METAR KLGA 120851Z 30013G23KT 10SM SCT055 08/01 A2996 RMK AO2 SLP146 T00780006 53004 (RZ)","FM-15","7","","","","","","","","","","","","","","","","","","","","","","","","","","","",""
"72503014732","2020-05-12T04:00:00","FM-12","4","","","","","","","","","","","","","","","","","","","","","","","","","","","","","","","","","","","","","","","33","46","","","-0.01","3","61","29.96","57","29.92","9.94","40","300","","15","","","","","","","","","","","","","","","","","","","","","","","","","","","","","","","","","","","","","SYN07472503 32766 43013 10078 20006 30132 40146 53004 90851 333 91023 555 91209=","FM-12","4","","","","","","","","","","","","","","","","","","","","","","","","","","","",""
"72503014732","2020-05-12T04:51:00","FM-15","7","","","","","","","","","","","","","","","","","","","","","","","","","","","","","","","","","","","","","","29.98","32","45","0.00","","","","61","29.98","FEW:02 65","29.95","10.00","40","290","25","16","","","","","","","","","","","","","","","","","","","","","","","","","","","","","","","","","","","","","MET10105/12/20 04:51:02 METAR KLGA 120951Z 29014G22KT 10SM FEW065 07/00 A2998 RMK AO2 SLP152 T00720000 (RZ)","FM-15","7","","","","","","","","","","","","","","","","","","","","","","","","","","","",""
"72503014732","2020-05-12T05:51:00","FM-15","7","","","","","","","","","","","","","","","","","","","","","","","","","","","","","","","","","","","","","","30.00","33","46","0.00","","","","61","30.00","FEW:02 35 FEW:02 65","29.97","10.00","40","290","","18","","","","","","","","","","","","","","","","","","","","","","","","","","","","","","","","","","","","","MET10605/12/20 05:51:02 METAR KLGA 121051Z 29016KT 10SM FEW035 FEW065 08/01 A3000 RMK AO2 SLP159 T00780006 (PAS)","FM-15","7","","","","","","","","","","","","","","","","","","","","","","","","","","","",""
"72503014732","2020-05-12T06:51:00","FM-15","7","","","","","","","","","","","","","","","","","","","","","","","","","","","","","","","","","","","","","","30.02","32","48","0.00","","-0.05","1","54","30.01","SCT:04 33 BKN:07 41 BKN:07 120","29.99","10.00","41","320","29","18","","","","","","","","","","","","","","","","","","","","","","","","","","","","","","","","","","","","","MET14005/12/20 06:51:02 METAR KLGA 121151Z 32016G25KT 10SM SCT033 BKN041 BKN120 09/00 A3002 RMK AO2 SLP164 70010 T00890000 10089 20072 51018 (PAS)","FM-15","7","","","","","","","","","","","","","","","","","","","","","","","","","","","",""
"72503014732","2020-05-12T07:00:00","FM-12","4","","","","","","","","","","","","","","","","","","","","","","","","","","","","","","","","","","","","","","","32","48","","","-0.05","1","54","30.01","26","29.98","9.94","41","320","","18","","","","","","","","","","","","","","","","","","","","","","","","","","","","","","","","","","","","","SYN09272503 32566 63216 10089 20000 30152 40164 51018 91151 333 10161 20072 70025 91025 555 91212=","FM-12","4","","","","","","","","","","","","","","","","","","","","","","","","","","","",""
"72503014732","2020-05-12T07:51:00","FM-15","7","","","","","","","","","","","","","","","","","","","","","","","","","","","","","","","","","","","","","","30.03","28","48","0.00","","","","46","30.03","FEW:02 43","30.00","10.00","40","290","25","15","","","","","","","","","","","","","","","","","","","","","","","","","","","","","","","","","","","","","MET10305/12/20 07:51:02 METAR KLGA 121251Z 29013G22KT 10SM FEW043 09/M02 A3003 RMK AO2 SLP168 T00891022 (PAS)","FM-15","7","","","","","","","","","","","","","","","","","","","","","","","","","","","",""
"72503014732","2020-05-12T08:51:00","FM-15","7","","","","","","","","","","","","","","","","","","","","","","","","","","","","","","","","","","","","","","30.04","21","50","0.00","","","","32","30.03","FEW:02 45","30.01","10.00","39","280","","23","","","","","","","","","","","","","","","","","","","","","","","","","","","","","","","","","","","","","MET10005/12/20 08:51:02 METAR KLGA 121351Z 28020KT 10SM FEW045 10/M06 A3004 RMK AO2 SLP171 T01001061 (PAS)","FM-15","7","","","","","","","","","","","","","","","","","","","","","","","","","","","",""
"72503014732","2020-05-12T09:51:00","FM-15","7","","","","","","","","","","","","","","","","","","","","","","","","","","","","","","","","","","","","","","30.03","20","52","0.00","","-0.01","0","28","30.03","FEW:02 45","30.00","10.00","40","310","26","21","","","","","","","","","","","","","","","","","","","","","","","","","","","","","","","","","","","","","MET12705/12/20 09:51:02 METAR KLGA 121451Z 31018G23KT 10SM FEW045 11/M07 A3003 RMK AO2 PK WND 30027/1419 SLP168 T01111067 50004 (PAS)","FM-15","7","","","","","","","","","","","","","","","","","","","","","","","","","","","",""
"72503014732","2020-05-12T10:00:00","FM-12","4","","","","","","","","","","","","","","","","","","","","","","","","","","","","","","","","","","","","","","","20","52","","","0.01","9","28","30.03","41","29.99","9.94","40","310","","21","","","","","","","","","","","","","","","","","","","","","","","","","","","","","","","","","","","","","SYN07472503 32666 23118 10111 21067 30156 40168 50004 91451 333 91023 555 91215=","FM-12","4","","","","","","","","","","","","","","","","","","","","","","","","","","","",""
"72503014732","2020-05-12T10:51:00","FM-15","7","","","","","","","","","","","","","","","","","","","","","","","","","","","","","","","","","","","","","","30.01","23","54","0.00","","","","30","30.01","FEW:02 55","29.98","10.00","41","310","28","18","","","","","","","","","","","","","","","","","","","","","","","","","","","","","","","","","","","","","MET12105/12/20 10:51:02 METAR KLGA 121551Z 31016G24KT 10SM FEW055 12/M05 A3001 RMK AO2 PK WND 28028/1528 SLP162 T01221050 (PAS)","FM-15","7","","","","","","","","","","","","","","","","","","","","","","","","","","","",""
"72503014732","2020-05-12T11:51:00","FM-15","7","","","","","","","","","","","","","","","","","","","","","","","","","","","","","","","","","","","","","","29.99","22","55","0.00","","","","28","29.99","FEW:02 55","29.96","10.00","42","320","28","17","","","","","","","","","","","","","","","","","","","","","","","","","","","","","","","","","","","","","MET12105/12/20 11:51:02 METAR KLGA 121651Z 32015G24KT 10SM FEW055 13/M06 A2999 RMK AO2 PK WND 31028/1556 SLP156 T01281056 (PAS)","FM-15","7","","","","","","","","","","","","","","","","","","","","","","","","","","","",""
"72503014732","2020-05-12T12:49:00","FM-16","6","","","","","","","","","","","","","","","","","","","","","","","","","","","","","","","","","","","","","","29.99","12","57","","","","","17","","FEW:02 60","29.96","10.00","40","270","29","16","","","","","","","","","","","","","","","","","","","","","","","","","","","","","","","","","","","","","MET12005/12/20 12:49:02 SPECI KLGA 121749Z 27014G25KT 10SM FEW060 14/M11 A2999 RMK AO2 PK WND 29028/1718 WSHFT 1731 FIBI (PAS)","FM-16","6","","","","","","","","","","","","","","","","","","","","","","","","","","","",""
"72503014732","2020-05-12T12:51:00","FM-15","7","","","","","","","","","","","","","","","","","","","","","","","","","","","","","","","","","","","","","","29.99","13","58","0.00","","+0.04","6","17","29.98","FEW:02 60","29.96","10.00","41","260","29","17","","","","","","","","","","","","","","","","","","","","","","","","","","","","","","","","","","","","","MET15005/12/20 12:51:02 METAR KLGA 121751Z 26015G25KT 10SM FEW060 14/M11 A2999 RMK AO2 PK WND 29028/1718 WSHFT 1731 SLP154 T01441106 10144 20089 56014 (PAS)","FM-15","7","","","","","","","","","","","","","","","","","","","","","","","","","","","",""
"72503014732","2020-05-12T13:00:00","FM-12","4","","","","","","","","","","","","","","","","","","","","","","","","","","","","","","","","","","","","","","","13","58","","","+0.04","6","17","29.98","57","29.95","9.94","41","260","","17","","","","","","","","","","","","","","","","","","","","","","","","","","","","","","","","","","","","","SYN08672503 32766 22615 10144 21106 30142 40154 56014 91751 333 10144 20089 91025 555 91218=","FM-12","4","","","","","","","","","","","","","","","","","","","","","","","","","","","",""
"72503014732","2020-05-12T13:51:00","FM-15","7","","","","","","","","","","","","","","","","","","","","","","","","","","","","","","","","","","","","","","29.98","13","59","0.00","","","","16","29.98","FEW:02 75","29.95","10.00","42","290","","15","","","","","","","","","","","","","","","","","","","","","","","","","","","","","","","","","","","","","MET11705/12/20 13:51:02 METAR KLGA 121851Z 29013KT 10SM FEW075 15/M11 A2998 RMK AO2 PK WND 32032/1831 SLP151 T01501106 (WL)","FM-15","7","","","","","","","","","","","","","","","","","","","","","","","","","","","",""
"72503014732","2020-05-12T14:51:00","FM-15","7","","","","","","","","","","","","","","","","","","","","","","","","","","","","","","","","","","","","","","29.97","17","59","0.00","","","","19","29.97","FEW:02 75","29.94","10.00","42","310","32","24","","","","","","","","","","","","","","","","","","","","","","","","","","","","","","","","","","","","","MET12005/12/20 14:51:02 METAR KLGA 121951Z 31021G28KT 10SM FEW075 15/M08 A2997 RMK AO2 PK WND 30030/1921 SLP150 T01501083 (WL)","FM-15","7","","","","","","","","","","","","","","","","","","","","","","","","","","","",""
"72503014732","2020-05-12T15:51:00","FM-15","7","","","","","","","","","","","","","","","","","","","","","","","","","","","","","","","","","","","","","","29.97","17","59","0.00","","+0.01","6","19","29.97","FEW:02 75","29.94","10.00","42","320","33","28","","","","","","","","","","","","","","","","","","","","","","","","","","","","","","","","","","","","","MET12605/12/20 15:51:02 METAR KLGA 122051Z 32024G29KT 10SM FEW075 15/M08 A2997 RMK AO2 PK WND 32030/1953 SLP149 T01501083 56004 (WL)","FM-15","7","","","","","","","","","","","","","","","","","","","","","","","","","","","",""
"72503014732","2020-05-12T16:00:00","FM-12","4","","","","","","","","","","","","","","","","","","","","","","","","","","","","","","","","","","","","","","","17","59","","","+0.01","6","19","29.97","74","29.93","9.94","42","320","","28","","","","","","","","","","","","","","","","","","","","","","","","","","","","","","","","","","","","","SYN07472503 32866 23224 10150 21083 30135 40149 56004 92051 333 91029 555 91221=","FM-12","4","","","","","","","","","","","","","","","","","","","","","","","","","","","",""
"72503014732","2020-05-12T16:51:00","FM-15","7","","","","","","","","","","","","","","","","","","","","","","","","","","","","","","","","","","","","","","29.99","18","59","0.00","","","","20","29.98","FEW:02 80","29.96","10.00","43","320","32","20","","","","","","","","","","","","","","","","","","","","","","","","","","","","","","","","","","","","","MET12005/12/20 16:51:02 METAR KLGA 122151Z 32017G28KT 10SM FEW080 15/M08 A2999 RMK AO2 PK WND 32028/2135 SLP154 T01501078 (WL)","FM-15","7","","","","","","","","","","","","","","","","","","","","","","","","","","","",""
"72503014732","2020-05-12T17:51:00","FM-15","7","","","","","","","","","","","","","","","","","","","","","","","","","","","","","","","","","","","","","","30.01","18","58","0.00","","","","21","30.01","FEW:02 80 SCT:04 110","29.98","10.00","42","320","26","21","","","","","","","","","","","","","","","","","","","","","","","","","","","","","","","","","","","","","MET12705/12/20 17:51:02 METAR KLGA 122251Z 32018G23KT 10SM FEW080 SCT110 14/M08 A3001 RMK AO2 PK WND 33026/2206 SLP162 T01441078 (WL)","FM-15","7","","","","","","","","","","","","","","","","","","","","","","","","","","","",""
"72503014732","2020-05-12T18:51:00","FM-15","7","","","","","","","","","","","","","","","","","","","","","","","","","","","","","","","","","","","","","","30.04","20","56","0.00","","-0.07","3","24","30.04","BKN:07 110","30.01","10.00","42","330","","15","","","","","","","","","","","","","","","","","","","","","","","","","","","","","","","","","","","","","MET11705/12/20 18:51:02 METAR KLGA 122351Z 33013KT 10SM BKN110 13/M07 A3004 RMK AO2 SLP173 T01331067 10156 20133 53024 (WL)","FM-15","7","","","","","","","","","","","","","","","","","","","","","","","","","","","",""
"72503014732","2020-05-12T19:00:00","FM-12","4","","","","","","","","","","","","","","","","","","","","","","","","","","","","","","","","","","","","","","","20","56","","","-0.07","3","24","30.04","","30.00","9.94","42","330","","15","","","","","","","","","","","","","","","","","","","","","","","","","","","","","","","","","","","","","SYN08072503 32966 63313 10133 21067 30159 40173 53024 92351 333 10156 20072 555 91300=","FM-12","4","","","","","","","","","","","","","","","","","","","","","","","","","","","",""
"72503014732","2020-05-12T19:51:00","FM-15","7","","","","","","","","","","","","","","","","","","","","","","","","","","","","","","","","","","","","","","30.07","23","55","0.00","","","","29","30.07","BKN:07 110","30.04","10.00","42","310","","14","","","","","","","","","","","","","","","","","","","","","","","","","","","","","","","","","","","","","MET09405/12/20 19:51:01 METAR KLGA 130051Z 31012KT 10SM BKN110 13/M05 A3007 RMK AO2 SLP183 T01281050","FM-15","7","","","","","","","","","","","","","","","","","","","","","","","","","","","",""
"72503014732","2020-05-12T20:51:00","FM-15","7","","","","","","","","","","","","","","","","","","","","","","","","","","","","","","","","","","","","","","30.11","23","55","0.00","","","","29","30.10","OVC:08 100","30.08","10.00","42","310","","14","","","","","","","","","","","","","","","","","","","","","","","","","","","","","","","","","","","","","MET09405/12/20 20:51:01 METAR KLGA 130151Z 31012KT 10SM OVC100 13/M05 A3011 RMK AO2 SLP194 T01281050","FM-15","7","","","","","","","","","","","","","","","","","","","","","","","","","","","",""
"72503014732","2020-05-12T21:51:00","FM-15","7","","","","","","","","","","","","","","","","","","","","","","","","","","","","","","","","","","","","","","30.13","22","54","0.00","","-0.08","1","29","30.12","BKN:07 90 OVC:08 110","30.10","10.00","41","340","","9","","","","","","","","","","","","","","","","","","","","","","","","","","","","","","","","","","","","","MET10705/12/20 21:51:01 METAR KLGA 130251Z 34008KT 10SM BKN090 OVC110 12/M06 A3013 RMK AO2 SLP201 T01221056 51028","FM-15","7","","","","","","","","","","","","","","","","","","","","","","","","","","","",""
"72503014732","2020-05-12T22:00:00","FM-12","4","","","","","","","","","","","","","","","","","","","","","","","","","","","","","","","","","","","","","","","22","54","","","-0.08","1","29","30.12","","30.09","9.94","41","340","","9","","","","","","","","","","","","","","","","","","","","","","","","","","","","","","","","","","","","","SYN06472503 32966 83408 10122 21056 30189 40201 51028 90251 555 91303=","FM-12","4","","","","","","","","","","","","","","","","","","","","","","","","","","","",""
"72503014732","2020-05-12T22:51:00","FM-15","7","","","","","","","","","","","","","","","","","","","","","","","","","","","","","","","","","","","","","","30.15","26","52","0.00","","","","37","30.15","SCT:04 80 BKN:07 100","30.12","10.00","41","310","","13","","","","","","","","","","","","","","","","","","","","","","","","","","","","","","","","","","","","","MET10105/12/20 22:51:02 METAR KLGA 130351Z 31011KT 10SM SCT080 BKN100 11/M03 A3015 RMK AO2 SLP209 T01111033","FM-15","7","","","","","","","","","","","","","","","","","","","","","","","","","","","",""
"72503014732","2020-05-12T23:51:00","FM-15","7","","","","","","","","","","","","","","","","","","","","","","","","","","","","","","","","","","","","","","30.18","27","49","0.00","","","","43","30.18","FEW:02 100","30.15","10.00","40","310","25","18","","","","","","","","","","","","","","","","","","","","","","","","","","","","","","","","","","","","","MET10705/12/20 23:51:02 METAR KLGA 130451Z 31016G22KT 10SM FEW100 09/M03 A3018 RMK AO2 SLP221 T00941028 401560072","FM-15","7","","","","","","","","","","","","","","","","","","","","","","","","","","","",""
"72503014732","2020-05-12T23:59:00","SOD  ","6","","","","","","","","","","","","","","","24","53","36","30.02","29.96","41","17.2","0","-8.3","12","60","45","320","36","0.00","0","0.0","310","29","","","","","","","","","","","","","","","","","","","","","","","","","","","","","","","","","","","","","","","","","","","","","","","","","","","","","","","","","SOD73924 HR PRECIPITATION (IN): 0.00 SNOW DEPTH (IN):0     24 HR SNOWFALL (IN):0.0  24 HR MAX TEMP (F): 6024 HR MIN TEMP (F): 45AVERAGE STATION PRESSURE:29.960 MINIMUM SEA LEVEL PRESSURE:29.95 TIME OF OCCURRENCE:0305 PEAK WIND SPEED (MPH): 36 PEAK WIND DIR (DEG):320 PEAK WIND TIME (LST):      FASTEST 2MIN SPEED (MPH): 29FASTEST 2MIN DIR (DEG):310 FASTEST 2MIN TIME (LST):     AVERAGE WIND SPEED (MPH):17.2 24 HR AVG TEMP (F): 53DEPART FROM NORMAL: -8  HEATING DEGREE DAYS: 12 COOLING DEGREE DAYS:  0 LATEST DAY MAX TEMP (0700-1900 LST):60  LATEST NIGHT MIN TEMP(1900-0800 LST):45 HOURLY INCREMENTAL PRECIPITATION VALUES (IN):.00 0.00 0.00 0.00 0.00 0.00 0.00 0.00 0.00 0.00 0.00 0.00 0.00 0.00 0.00 0.00 0.00 0.00 0.00 0.00 0.00 0.00 0.00 0.00","SOD  ","6","","","","","","","","","","","","","","","","","","","","","","","","","0441","1904","",""
"72503014732","2020-05-13T00:51:00","FM-15","7","","","","","","","","","","","","","","","","","","","","","","","","","","","","","","","","","","","","","","30.20","28","47","0.00","","-0.07","1","48","30.20","FEW:02 100","30.17","10.00","39","320","","11","","","","","","","","","","","","","","","","","","","","","","","","","","","","","","","","","","","","","MET11705/13/20 00:51:02 METAR KLGA 130551Z 32010KT 10SM FEW100 08/M02 A3020 RMK AO2 SLP226 T00831022 10139 20083 51025 (RZ)","FM-15","7","","","","","","","","","","","","","","","","","","","","","","","","","","","",""
"72503014732","2020-05-13T01:00:00","FM-12","4","","","","","","","","","","","","","","","","","","","","","","","","","","","","","","","","","","","","","","","28","47","","","-0.07","1","48","30.20","","30.16","9.94","39","320","","11","","","","","","","","","","","","","","","","","","","","","","","","","","","","","","","","","","","","","SYN08072503 32966 23210 10083 21022 30213 40226 51025 90551 333 10139 20072 555 91306=","FM-12","4","","","","","","","","","","","","","","","","","","","","","","","","","","","",""
"72503014732","2020-05-13T01:51:00","FM-15","7","","","","","","","","","","","","","","","","","","","","","","","","","","","","","","","","","","","","","","30.20","26","47","0.00","","","","44","30.20","CLR:00","30.17","10.00","39","310","","17","","","","","","","","","","","","","","","","","","","","","","","","","","","","","","","","","","","","","MET09605/13/20 01:51:02 METAR KLGA 130651Z 31015KT 10SM CLR 08/M03 A3020 RMK AO2 SLP227 T00831033 (RZ)","FM-15","7","","","","","","","","","","","","","","","","","","","","","","","","","","","",""
"72503014732","2020-05-13T02:51:00","FM-15","7","","","","","","","","","","","","","","","","","","","","","","","","","","","","","","","","","","","","","","30.22","23","45","0.00","","","","42","30.22","CLR:00","30.19","10.00","37","300","","15","","","","","","","","","","","","","","","","","","","","","","","","","","","","","","","","","","","","","MET09605/13/20 02:51:02 METAR KLGA 130751Z 30013KT 10SM CLR 07/M05 A3022 RMK AO2 SLP234 T00721050 (RZ)","FM-15","7","","","","","","","","","","","","","","","","","","","","","","","","","","","",""
"72503014732","2020-05-13T03:51:00","FM-15","7","","","","","","","","","","","","","","","","","","","","","","","","","","","","","","","","","","","","","","30.25","24","44","0.00","","-0.05","3","45","30.24","CLR:00","30.22","10.00","36","330","","13","","","","","","","","","","","","","","","","","","","","","","","","","","","","","","","","","","","","","MET10205/13/20 03:51:02 METAR KLGA 130851Z 33011KT 10SM CLR 07/M04 A3025 RMK AO2 SLP242 T00671044 53017 (RZ)","FM-15","7","","","","","","","","","","","","","","","","","","","","","","","","","","","",""
"72503014732","2020-05-13T04:00:00","FM-12","4","","","","","","","","","","","","","","","","","","","","","","","","","","","","","","","","","","","","","","","24","44","","","-0.05","3","45","30.24","","30.21","9.94","36","330","","13","","","","","","","","","","","","","","","","","","","","","","","","","","","","","","","","","","","","","SYN06472503 32966 03311 10067 21044 30230 40242 53017 90851 555 91309=","FM-12","4","","","","","","","","","","","","","","","","","","","","","","","","","","","",""
"72503014732","2020-05-13T04:51:00","FM-15","7","","","","","","","","","","","","","","","","","","","","","","","","","","","","","","","","","","","","","","30.27","25","43","0.00","","","","49","30.27","CLR:00","30.24","10.00","36","320","","14","","","","","","","","","","","","","","","","","","","","","","","","","","","","","","","","","","","","","MET09605/13/20 04:51:02 METAR KLGA 130951Z 32012KT 10SM CLR 06/M04 A3027 RMK AO2 SLP249 T00611039 (RZ)","FM-15","7","","","","","","","","","","","","","","","","","","","","","","","","","","","",""
"72503014732","2020-05-13T05:51:00","FM-15","7","","","","","","","","","","","","","","","","","","","","","","","","","","","","","","","","","","","","","","30.30","25","44","0.00","","","","47","30.29","CLR:00","30.27","10.00","37","320","","10","","","","","","","","","","","","","","","","","","","","","","","","","","","","","","","","","","","","","MET09705/13/20 05:51:02 METAR KLGA 131051Z 32009KT 10SM CLR 07/M04 A3030 RMK AO2 SLP259 T00671039 (PAS)","FM-15","7","","","","","","","","","","","","","","","","","","","","","","","","","","","",""
"72503014732","2020-05-13T06:51:00","FM-15","7","","","","","","","","","","","","","","","","","","","","","","","","","","","","","","","","","","","","","","30.31","25","45","0.00","","-0.06","1","46","30.31","CLR:00","30.28","10.00","37","310","","9","","","","","","","","","","","","","","","","","","","","","","","","","","","","","","","","","","","","","MET11505/13/20 06:51:02 METAR KLGA 131151Z 31008KT 10SM CLR 07/M04 A3031 RMK AO2 SLP264 T00721039 10083 20061 51022 (PAS)","FM-15","7","","","","","","","","","","","","","","","","","","","","","","","","","","","",""
"72503014732","2020-05-13T07:00:00","FM-12","4","","","","","","","","","","","","","","","","","","","","","","","","","","","","","","","","","","","","","","","25","45","","","-0.06","1","46","30.31","","30.27","9.94","37","310","","9","","","","","","","","","","","","","","","","","","","","","","","","","","","","","","","","","","","","","SYN08072503 32966 03108 10072 21039 30250 40264 51022 91151 333 10156 20061 555 91312=","FM-12","4","","","","","","","","","","","","","","","","","","","","","","","","","","","",""
"72503014732","2020-05-13T07:51:00","FM-15","7","","","","","","","","","","","","","","","","","","","","","","","","","","","","","","","","","","","","","","30.33","24","47","0.00","","","","41","30.32","CLR:00","30.30","10.00","38","310","","7","","","","","","","","","","","","","","","","","","","","","","","","","","","","","","","","","","","","","MET09705/13/20 07:51:02 METAR KLGA 131251Z 31006KT 10SM CLR 08/M04 A3033 RMK AO2 SLP269 T00831044 (PAS)","FM-15","7","","","","","","","","","","","","","","","","","","","","","","","","","","","",""
"72503014732","2020-05-13T08:51:00","FM-15","7","","","","","","","","","","","","","","","","","","","","","","","","","","","","","","","","","","","","","","30.32","17","50","0.00","","","","27","30.32","CLR:00","30.29","10.00","38","340","","6","","","","","","","","","","","","","","","","","","","","","","","","","","","","","","","","","","","","","MET09705/13/20 08:51:02 METAR KLGA 131351Z 34005KT 10SM CLR 10/M08 A3032 RMK AO2 SLP267 T01001083 (PAS)","FM-15","7","","","","","","","","","","","","","","","","","","","","","","","","","","","",""
"72503014732","2020-05-13T09:51:00","FM-15","7","","","","","","","","","","","","","","","","","","","","","","","","","","","","","","","","","","","","","","30.31","20","51","0.00","","-0.00","0","29","30.31","CLR:00","30.28","10.00","39","310","","11","","","","","","","","","","","","","","","","","","","","","","","","","","","","","","","","","","","","","MET10305/13/20 09:51:02 METAR KLGA 131451Z 31010KT 10SM CLR 11/M07 A3031 RMK AO2 SLP264 T01061067 50000 (PAS)","FM-15","7","","","","","","","","","","","","","","","","","","","","","","","","","","","",""
"72503014732","2020-05-13T10:00:00","FM-12","4","","","","","","","","","","","","","","","","","","","","","","","","","","","","","","","","","","","","","","","20","51","","","0.00","9","29","30.31","","30.27","9.94","39","310","","11","","","","","","","","","","","","","","","","","","","","","","","","","","","","","","","","","","","","","SYN06472503 32966 03110 10106 21067 30250 40264 50000 91451 555 91315=","FM-12","4","","","","","","","","","","","","","","","","","","","","","","","","","","","",""
"72503014732","2020-05-13T10:51:00","FM-15","7","","","","","","","","","","","","","","","","","","","","","","","","","","","","","","","","","","","","","","30.30","19","54","0.00","","","","25","30.30","CLR:00","30.27","10.00","40","290","20","9","","","","","","","","","","","","","","","","","","","","","","","","","","","","","","","","","","","","","MET10005/13/20 10:51:02 METAR KLGA 131551Z 29008G17KT 10SM CLR 12/M07 A3030 RMK AO2 SLP261 T01221072 (PAS)","FM-15","7","","","","","","","","","","","","","","","","","","","","","","","","","","","",""
"72503014732","2020-05-13T11:51:00","FM-15","7","","","","","","","","","","","","","","","","","","","","","","","","","","","","","","","","","","","","","","30.28","21","57","0.00","","","","25","30.27","FEW:02 80","30.25","10.00","42","300","24","10","","","","","","","","","","","","","","","","","","","","","","","","","","","","","","","","","","","","","MET10305/13/20 11:51:02 METAR KLGA 131651Z 30009G21KT 10SM FEW080 14/M06 A3028 RMK AO2 SLP252 T01391061 (PAS)","FM-15","7","","","","","","","","","","","","","","","","","","","","","","","","","","","",""
"72503014732","2020-05-13T12:51:00","FM-15","7","","","","","","","","","","","","","","","","","","","","","","","","","","","","","","","","","","","","","","30.25","21","59","0.00","","+0.06","8","23","30.25","FEW:02 80","30.22","10.00","43","280","22","11","","","","","","","","","","","","","","","","","","","","","","","","","","","","","","","","","","","","","MET12105/13/20 12:51:02 METAR KLGA 131751Z 28010G19KT 10SM FEW080 15/M06 A3025 RMK AO2 SLP245 T01501061 10150 20072 58020 (PAS)","FM-15","7","","","","","","","","","","","","","","","","","","","","","","","","","","","",""
"72503014732","2020-05-13T13:00:00","FM-12","4","","","","","","","","","","","","","","","","","","","","","","","","","","","","","","","","","","","","","","","21","59","","","+0.06","8","23","30.25","74","30.21","9.94","43","280","","11","","","","","","","","","","","","","","","","","","","","","","","","","","","","","","","","","","","","","SYN08672503 32866 22810 10150 21061 30230 40245 58020 91751 333 10150 20072 91019 555 91318=","FM-12","4","","","","","","","","","","","","","","","","","","","","","","","","","","","",""
"72503014732","2020-05-13T13:51:00","FM-15","7","","","","","","","","","","","","","","","","","","","","","","","","","","","","","","","","","","","","","","30.24","21","61","0.00","","","","21","30.24","FEW:02 75","30.21","10.00","44","310","23","13","","","","","","","","","","","","","","","","","","","","","","","","","","","","","","","","","","","","","MET10205/13/20 13:51:02 METAR KLGA 131851Z 31011G20KT 10SM FEW075 16/M06 A3024 RMK AO2 SLP241 T01611061 (WL)","FM-15","7","","","","","","","","","","","","","","","","","","","","","","","","","","","",""
"72503014732","2020-05-13T14:51:00","FM-15","7","","","","","","","","","","","","","","","","","","","","","","","","","","","","","","","","","","","","","","30.22","22","62","0.00","","","","21","30.22","FEW:02 75","30.19","10.00","45","320","24","16","","","","","","","","","","","","","","","","","","","","","","","","","","","","","","","","","","","","","MET10205/13/20 14:51:02 METAR KLGA 131951Z 32014G21KT 10SM FEW075 17/M06 A3022 RMK AO2 SLP232 T01671056 (WL)","FM-15","7","","","","","","","","","","","","","","","","","","","","","","","","","","","",""
"72503014732","2020-05-13T15:51:00","FM-15","7","","","","","","","","","","","","","","","","","","","","","","","","","","","","","","","","","","","","","","30.22","22","63","0.00","","+0.04","6","21","30.22","FEW:02 75","30.19","10.00","46","330","","14","","","","","","","","","","","","","","","","","","","","","","","","","","","","","","","","","","","","","MET10505/13/20 15:51:02 METAR KLGA 132051Z 33012KT 10SM FEW075 17/M06 A3022 RMK AO2 SLP232 T01721056 56013 (WL)","FM-15","7","","","","","","","","","","","","","","","","","","","","","","","","","","","",""
"72503014732","2020-05-13T16:00:00","FM-12","4","","","","","","","","","","","","","","","","","","","","","","","","","","","","","","","","","","","","","","","22","63","","","+0.04","6","21","30.22","74","30.18","9.94","46","330","","14","","","","","","","","","","","","","","","","","","","","","","","","","","","","","","","","","","","","","SYN06472503 32866 23312 10172 21056 30220 40232 56013 92051 555 91321=","FM-12","4","","","","","","","","","","","","","","","","","","","","","","","","","","","",""
"72503014732","2020-05-13T16:51:00","FM-15","7","","","","","","","","","","","","","","","","","","","","","","","","","","","","","","","","","","","","","","30.22","34","58","0.00","","","","41","30.22","FEW:02 75","30.19","10.00","47","160","","14","","","","","","","","","","","","","","","","","","","","","","","","","","","","","","","","","","","","","MET09805/13/20 16:51:02 METAR KLGA 132151Z 16012KT 10SM FEW075 14/01 A3022 RMK AO2 SLP233 T01440011 (WL)","FM-15","7","","","","","","","","","","","","","","","","","","","","","","","","","","","",""
"72503014732","2020-05-13T17:51:00","FM-15","7","","","","","","","","","","","","","","","","","","","","","","","","","","","","","","","","","","","","","","30.23","37","57","0.00","","","","47","30.22","FEW:02 75","30.20","10.00","48","170","","14","","","","","","","","","","","","","","","","","","","","","","","","","","","","","","","","","","","","","MET09805/13/20 17:51:02 METAR KLGA 132251Z 17012KT 10SM FEW075 14/03 A3023 RMK AO2 SLP235 T01390028 (WL)","FM-15","7","","","","","","","","","","","","","","","","","","","","","","","","","","","",""
"72503014732","2020-05-13T18:51:00","FM-15","7","","","","","","","","","","","","","","","","","","","","","","","","","","","","","","","","","","","","","","30.24","39","55","0.00","","-0.02","3","55","30.24","CLR:00","30.21","10.00","47","170","","9","","","","","","","","","","","","","","","","","","","","","","","","","","","","","","","","","","","","","MET11305/13/20 18:51:02 METAR KLGA 132351Z 17008KT 10SM CLR 13/04 A3024 RMK AO2 SLP240 T01280039 10178 20128 53008 (WL)","FM-15","7","","","","","","","","","","","","","","","","","","","","","","","","","","","",""
"72503014732","2020-05-13T19:00:00","FM-12","4","","","","","","","","","","","","","","","","","","","","","","","","","","","","","","","","","","","","","","","39","55","","","-0.02","3","55","30.24","","30.20","9.94","47","170","","9","","","","","","","","","","","","","","","","","","","","","","","","","","","","","","","","","","","","","SYN08072503 32966 01708 10128 20039 30227 40240 53008 92351 333 10178 20061 555 91400=","FM-12","4","","","","","","","","","","","","","","","","","","","","","","","","","","","",""
"72503014732","2020-05-13T19:51:00","FM-15","7","","","","","","","","","","","","","","","","","","","","","","","","","","","","","","","","","","","","","","30.26","40","54","0.00","","","","59","30.26","CLR:00","30.23","10.00","47","VRB","","6","","","","","","","","","","","","","","","","","","","","","","","","","","","","","","","","","","","","","MET09005/13/20 19:51:01 METAR KLGA 140051Z VRB05KT 10SM CLR 12/04 A3026 RMK AO2 SLP246 T01220044","FM-15","7","","","","","","","","","","","","","","","","","","","","","","","","","","","",""
"72503014732","2020-05-13T20:51:00","FM-15","7","","","","","","","","","","","","","","","","","","","","","","","","","","","","","","","","","","","","","","30.28","41","53","0.00","","","","64","30.28","CLR:00","30.25","10.00","47","160","","3","","","","","","","","","","","","","","","","","","","","","","","","","","","","","","","","","","","","","MET09005/13/20 20:51:01 METAR KLGA 140151Z 16003KT 10SM CLR 12/05 A3028 RMK AO2 SLP254 T01170050","FM-15","7","","","","","","","","","","","","","","","","","","","","","","","","","","","",""
"72503014732","2020-05-13T21:51:00","FM-15","7","","","","","","","","","","","","","","","","","","","","","","","","","","","","","","","","","","","","","","30.29","41","54","0.00","","-0.05","1","62","30.29","CLR:00","30.26","10.00","48","120","","6","","","","","","","","","","","","","","","","","","","","","","","","","","","","","","","","","","","","","MET09605/13/20 21:51:01 METAR KLGA 140251Z 12005KT 10SM CLR 12/05 A3029 RMK AO2 SLP256 T01220050 51016","FM-15","7","","","","","","","","","","","","","","","","","","","","","","","","","","","",""
"72503014732","2020-05-13T22:00:00","FM-12","4","","","","","","","","","","","","","","","","","","","","","","","","","","","","","","","","","","","","","","","41","54","","","-0.05","1","62","30.29","","30.25","9.94","48","120","","6","","","","","","","","","","","","","","","","","","","","","","","","","","","","","","","","","","","","","SYN06472503 32966 01205 10122 20050 30244 40256 51016 90251 555 91403=","FM-12","4","","","","","","","","","","","","","","","","","","","","","","","","","","","",""
"72503014732","2020-05-13T22:51:00","FM-15","7","","","","","","","","","","","","","","","","","","","","","","","","","","","","","","","","","","","","","","30.30","39","54","0.00","","","","57","30.29","CLR:00","30.27","10.00","47","000","","0","","","","","","","","","","","","","","","","","","","","","","","","","","","","","","","","","","","","","MET09005/13/20 22:51:02 METAR KLGA 140351Z 00000KT 10SM CLR 12/04 A3030 RMK AO2 SLP258 T01220039","FM-15","7","","","","","","","","","","","","","","","","","","","","","","","","","","","",""
"72503014732","2020-05-13T23:51:00","FM-15","7","","","","","","","","","","","","","","","","","","","","","","","","","","","","","","","","","","","","","","30.29","25","55","0.00","","","","31","30.29","CLR:00","30.26","10.00","43","340","","5","","","","","","","","","","","","","","","","","","","","","","","","","","","","","","","","","","","","","MET10105/13/20 23:51:02 METAR KLGA 140451Z 34004KT 10SM CLR 13/M04 A3029 RMK AO2 SLP257 T01281039 401780061","FM-15","7","","","","","","","","","","","","","","","","","","","","","","","","","","","",""
"72503014732","2020-05-13T23:59:00","SOD  ","6","","","","","","","","","","","","","","","27","54","40","30.26","30.22","42","10.2","0","-7.6","11","64","43","260","26","0.00","0","0.0","310","20","","","","","","","","","","","","","","","","","","","","","","","","","","","","","","","","","","","","","","","","","","","","","","","","","","","","","","","","","SOD73924 HR PRECIPITATION (IN): 0.00 SNOW DEPTH (IN):0     24 HR SNOWFALL (IN):0.0  24 HR MAX TEMP (F): 6424 HR MIN TEMP (F): 43AVERAGE STATION PRESSURE:30.215 MINIMUM SEA LEVEL PRESSURE:30.18 TIME OF OCCURRENCE:0009 PEAK WIND SPEED (MPH): 26 PEAK WIND DIR (DEG):260 PEAK WIND TIME (LST):      FASTEST 2MIN SPEED (MPH): 20FASTEST 2MIN DIR (DEG):310 FASTEST 2MIN TIME (LST):     AVERAGE WIND SPEED (MPH):10.2 24 HR AVG TEMP (F): 54DEPART FROM NORMAL: -8  HEATING DEGREE DAYS: 11 COOLING DEGREE DAYS:  0 LATEST DAY MAX TEMP (0700-1900 LST):64  LATEST NIGHT MIN TEMP(1900-0800 LST):43 HOURLY INCREMENTAL PRECIPITATION VALUES (IN):.00 0.00 0.00 0.00 0.00 0.00 0.00 0.00 0.00 0.00 0.00 0.00 0.00 0.00 0.00 0.00 0.00 0.00 0.00 0.00 0.00 0.00 0.00 0.00","SOD  ","6","","","","","","","","","","","","","","","","","","","","","","","","","0439","1905","",""
"72503014732","2020-05-14T00:51:00","FM-15","7","","","","","","","","","","","","","","","","","","","","","","","","","","","","","","","","","","","","","","30.30","35","52","0.00","","-0.01","2","53","30.30","CLR:00","30.27","10.00","44","000","","0","","","","","","","","","","","","","","","","","","","","","","","","","","","","","","","","","","","","","MET11305/14/20 00:51:02 METAR KLGA 140551Z 00000KT 10SM CLR 11/02 A3030 RMK AO2 SLP260 T01110017 10128 20111 52004 (RZ)","FM-15","7","","","","","","","","","","","","","","","","","","","","","","","","","","","",""
"72503014732","2020-05-14T01:00:00","FM-12","4","","","","","","","","","","","","","","","","","","","","","","","","","","","","","","","","","","","","","","","35","52","","","-0.01","2","53","30.30","","30.26","9.94","44","000","","0","","","","","","","","","","","","","","","","","","","","","","","","","","","","","","","","","","","","","SYN08072503 32966 00000 10111 20017 30247 40260 52004 90551 333 10128 20061 555 91406=","FM-12","4","","","","","","","","","","","","","","","","","","","","","","","","","","","",""
"72503014732","2020-05-14T01:51:00","FM-15","7","","","","","","","","","","","","","","","","","","","","","","","","","","","","","","","","","","","","","","30.31","32","52","0.00","","","","47","30.30","CLR:00","30.28","10.00","43","080","","3","","","","","","","","","","","","","","","","","","","","","","","","","","","","","","","","","","","","","MET09505/14/20 01:51:02 METAR KLGA 140651Z 08003KT 10SM CLR 11/00 A3031 RMK AO2 SLP262 T01110000 (RZ)","FM-15","7","","","","","","","","","","","","","","","","","","","","","","","","","","","",""
"72503014732","2020-05-14T02:51:00","FM-15","7","","","","","","","","","","","","","","","","","","","","","","","","","","","","","","","","","","","","","","30.32","31","50","0.00","","","","48","30.32","CLR:00","30.29","10.00","42","190","","6","","","","","","","","","","","","","","","","","","","","","","","","","","","","","","","","","","","","","MET09605/14/20 02:51:02 METAR KLGA 140751Z 19005KT 10SM CLR 10/M01 A3032 RMK AO2 SLP266 T01001006 (RZ)","FM-15","7","","","","","","","","","","","","","","","","","","","","","","","","","","","",""
"72503014732","2020-05-14T03:51:00","FM-15","7","","","","","","","","","","","","","","","","","","","","","","","","","","","","","","","","","","","","","","30.33","37","49","0.00","","-0.03","3","64","30.33","FEW:02 250","30.30","10.00","44","060","","3","","","","","","","","","","","","","","","","","","","","","","","","","","","","","","","","","","","","","MET10405/14/20 03:51:02 METAR KLGA 140851Z 06003KT 10SM FEW250 09/03 A3033 RMK AO2 SLP270 T00940028 53010 (RZ)","FM-15","7","","","","","","","","","","","","","","","","","","","","","","","","","","","",""
"72503014732","2020-05-14T04:00:00","FM-12","4","","","","","","","","","","","","","","","","","","","","","","","","","","","","","","","","","","","","","","","37","49","","","-0.03","3","64","30.33","","30.29","9.94","44","060","","3","","","","","","","","","","","","","","","","","","","","","","","","","","","","","","","","","","","","","SYN06472503 32966 20603 10094 20028 30257 40270 53010 90851 555 91409=","FM-12","4","","","","","","","","","","","","","","","","","","","","","","","","","","","",""
"72503014732","2020-05-14T04:51:00","FM-15","7","","","","","","","","","","","","","","","","","","","","","","","","","","","","","","","","","","","","","","30.33","42","49","0.00","","","","77","30.33","SCT:04 250","30.30","10.00","46","050","","7","","","","","","","","","","","","","","","","","","","","","","","","","","","","","","","","","","","","","MET09805/14/20 04:51:02 METAR KLGA 140951Z 05006KT 10SM SCT250 09/06 A3033 RMK AO2 SLP271 T00940056 (RZ)","FM-15","7","","","","","","","","","","","","","","","","","","","","","","","","","","","",""
"72503014732","2020-05-14T05:51:00","FM-15","7","","","","","","","","","","","","","","","","","","","","","","","","","","","","","","","","","","","","","","30.34","37","49","0.00","","","","64","30.34","BKN:07 250","30.31","10.00","44","060","","6","","","","","","","","","","","","","","","","","","","","","","","","","","","","","","","","","","","","","MET09905/14/20 05:51:02 METAR KLGA 141051Z 06005KT 10SM BKN250 09/03 A3034 RMK AO2 SLP274 T00940028 (PAS)","FM-15","7","","","","","","","","","","","","","","","","","","","","","","","","","","","",""
"72503014732","2020-05-14T06:51:00","FM-15","7","","","","","","","","","","","","","","","","","","","","","","","","","","","","","","","","","","","","","","30.35","42","52","0.00","","-0.02","3","69","30.35","BKN:07 250","30.32","10.00","47","050","","5","","","","","","","","","","","","","","","","","","","","","","","","","","","","","","","","","","","","","MET11705/14/20 06:51:02 METAR KLGA 141151Z 05004KT 10SM BKN250 11/06 A3035 RMK AO2 SLP276 T01110056 10117 20089 53006 (PAS)","FM-15","7","","","","","","","","","","","","","","","","","","","","","","","","","","","",""
"72503014732","2020-05-14T07:00:00","FM-12","4","","","","","","","","","","","","","","","","","","","","","","","","","","","","","","","","","","","","","","","42","52","","","-0.02","3","69","30.35","","30.31","9.94","47","050","","5","","","","","","","","","","","","","","","","","","","","","","","","","","","","","","","","","","","","","SYN08072503 32966 60504 10111 20056 30264 40276 53006 91151 333 10178 20089 555 91412=","FM-12","4","","","","","","","","","","","","","","","","","","","","","","","","","","","",""
"72503014732","2020-05-14T07:51:00","FM-15","7","","","","","","","","","","","","","","","","","","","","","","","","","","","","","","","","","","","","","","30.34","38","55","0.00","","","","53","30.34","BKN:07 250","30.31","10.00","47","040","","5","","","","","","","","","","","","","","","","","","","","","","","","","","","","","","","","","","","","","MET09905/14/20 07:51:02 METAR KLGA 141251Z 04004KT 10SM BKN250 13/03 A3034 RMK AO2 SLP274 T01280033 (PAS)","FM-15","7","","","","","","","","","","","","","","","","","","","","","","","","","","","",""
"72503014732","2020-05-14T08:51:00","FM-15","7","","","","","","","","","","","","","","","","","","","","","","","","","","","","","","","","","","","","","","30.32","28","59","0.00","","","","31","30.32","SCT:04 250","30.29","10.00","45","050","","5","","","","","","","","","","","","","","","","","","","","","","","","","","","","","","","","","","","","","MET10005/14/20 08:51:02 METAR KLGA 141351Z 05004KT 10SM SCT250 15/M02 A3032 RMK AO2 SLP268 T01501022 (PAS)","FM-15","7","","","","","","","","","","","","","","","","","","","","","","","","","","","",""
"72503014732","2020-05-14T09:51:00","FM-15","7","","","","","","","","","","","","","","","","","","","","","","","","","","","","","","","","","","","","","","30.30","27","61","0.00","","+0.04","8","27","30.30","FEW:02 150 SCT:04 250","30.27","10.00","46","050","","7","","","","","","","","","","","","","","","","","","","","","","","","","","","","","","","","","","","","","MET11305/14/20 09:51:02 METAR KLGA 141451Z 05006KT 10SM FEW150 SCT250 16/M03 A3030 RMK AO2 SLP262 T01611028 58015 (PAS)","FM-15","7","","","","","","","","","","","","","","","","","","","","","","","","","","","",""
"72503014732","2020-05-14T10:00:00","FM-12","4","","","","","","","","","","","","","","","","","","","","","","","","","","","","","","","","","","","","","","","27","61","","","+0.04","8","27","30.30","","30.26","9.94","46","050","","7","","","","","","","","","","","","","","","","","","","","","","","","","","","","","","","","","","","","","SYN06472503 32966 40506 10161 21028 30247 40262 58015 91451 555 91415=","FM-12","4","","","","","","","","","","","","","","","","","","","","","","","","","","","",""
"72503014732","2020-05-14T10:51:00","FM-15","7","","","","","","","","","","","","","","","","","","","","","","","","","","","","","","","","","","","","","","30.28","23","64","0.00","","","","21","30.28","SCT:04 170 BKN:07 250","30.25","10.00","46","170","","7","","","","","","","","","","","","","","","","","","","","","","","","","","","","","","","","","","","","","MET10705/14/20 10:51:02 METAR KLGA 141551Z 17006KT 10SM SCT170 BKN250 18/M05 A3028 RMK AO2 SLP255 T01781050 (PAS)","FM-15","7","","","","","","","","","","","","","","","","","","","","","","","","","","","",""
"72503014732","2020-05-14T11:51:00","FM-15","7","","","","","","","","","","","","","","","","","","","","","","","","","","","","","","","","","","","","","","30.26","21","64","0.00","","","","19","30.25","FEW:02 170 SCT:04 250","30.23","10.00","46","190","","10","","","","","","","","","","","","","","","","","","","","","","","","","","","","","","","","","","","","","MET10705/14/20 11:51:02 METAR KLGA 141651Z 19009KT 10SM FEW170 SCT250 18/M06 A3026 RMK AO2 SLP245 T01781061 (PAS)","FM-15","7","","","","","","","","","","","","","","","","","","","","","","","","","","","",""
"72503014732","2020-05-14T12:51:00","FM-15","7","","","","","","","","","","","","","","","","","","","","","","","","","","","","","","","","","","","","","","30.23","27","64","0.00","","+0.07","8","25","30.23","FEW:02 170 BKN:07 250","30.20","10.00","48","170","","14","","","","","","","","","","","","","","","","","","","","","","","","","","","","","","","","","","","","","MET12505/14/20 12:51:02 METAR KLGA 141751Z 17012KT 10SM FEW170 BKN250 18/M03 A3023 RMK AO2 SLP237 T01781028 10178 20111 58025 (PAS)","FM-15","7","","","","","","","","","","","","","","","","","","","","","","","","","","","",""
"72503014732","2020-05-14T13:00:00","FM-12","4","","","","","","","","","","","","","","","","","","","","","","","","","","","","","","","","","","","","","","","27","64","","","+0.07","8","25","30.23","","30.19","9.94","48","170","","14","","","","","","","","","","","","","","","","","","","","","","","","","","","","","","","","","","","","","SYN08072503 32966 61712 10178 21028 30223 40237 58025 91751 333 10178 20111 555 91418=","FM-12","4","","","","","","","","","","","","","","","","","","","","","","","","","","","",""
"72503014732","2020-05-14T13:51:00","FM-15","7","","","","","","","","","","","","","","","","","","","","","","","","","","","","","","","","","","","","","","30.20","31","63","0.00","","","","30","30.20","FEW:02 170 BKN:07 250","30.17","10.00","48","160","","14","","","","","","","","","","","","","","","","","","","","","","","","","","","","","","","","","","","","","MET10605/14/20 13:51:02 METAR KLGA 141851Z 16012KT 10SM FEW170 BKN250 17/M01 A3020 RMK AO2 SLP226 T01721006 (AW)","FM-15","7","","","","","","","","","","","","","","","","","","","","","","","","","","","",""
"72503014732","2020-05-14T14:51:00","FM-15","7","","","","","","","","","","","","","","","","","","","","","","","","","","","","","","","","","","","","","","30.16","39","64","0.00","","","","40","30.16","FEW:02 150 SCT:04 250","30.13","10.00","52","160","","13","","","","","","","","","","","","","","","","","","","","","","","","","","","","","","","","","","","","","MET10505/14/20 14:51:02 METAR KLGA 141951Z 16011KT 10SM FEW150 SCT250 18/04 A3016 RMK AO2 SLP214 T01780039 (AW)","FM-15","7","","","","","","","","","","","","","","","","","","","","","","","","","","","",""
"72503014732","2020-05-14T15:51:00","FM-15","7","","","","","","","","","","","","","","","","","","","","","","","","","","","","","","","","","","","","","","30.13","42","65","0.00","","+0.10","8","43","30.12","FEW:02 150 SCT:04 250","30.10","10.00","53","180","22","17","","","","","","","","","","","","","","","","","","","","","","","","","","","","","","","","","","","","","MET11405/14/20 15:51:02 METAR KLGA 142051Z 18015G19KT 10SM FEW150 SCT250 18/06 A3013 RMK AO2 SLP201 T01830056 58035 (AW)","FM-15","7","","","","","","","","","","","","","","","","","","","","","","","","","","","",""
"72503014732","2020-05-14T16:00:00","FM-12","4","","","","","","","","","","","","","","","","","","","","","","","","","","","","","","","","","","","","","","","42","65","","","+0.10","8","43","30.12","","30.09","9.94","53","180","","17","","","","","","","","","","","","","","","","","","","","","","","","","","","","","","","","","","","","","SYN07472503 32966 41815 10183 20056 30189 40201 58035 92051 333 91019 555 91421=","FM-12","4","","","","","","","","","","","","","","","","","","","","","","","","","","","",""
"72503014732","2020-05-14T16:51:00","FM-15","7","","","","","","","","","","","","","","","","","","","","","","","","","","","","","","","","","","","","","","30.11","43","63","0.00","","","","48","30.11","FEW:02 80 FEW:02 140 SCT:04 210","30.08","10.00","53","180","25","16","","","","","","","","","","","","","","","","","","","","","","","","","","","","","","","","","","","","","MET11505/14/20 16:51:02 METAR KLGA 142151Z 18014G22KT 10SM FEW080 FEW140 SCT210 17/06 A3011 RMK AO2 SLP196 T01720061 (AW)","FM-15","7","","","","","","","","","","","","","","","","","","","","","","","","","","","",""
"72503014732","2020-05-14T17:51:00","FM-15","7","","","","","","","","","","","","","","","","","","","","","","","","","","","","","","","","","","","","","","30.09","45","62","0.00","","","","54","30.09","SCT:04 70 BKN:07 110 BKN:07 200","30.06","10.00","53","180","21","13","","","","","","","","","","","","","","","","","","","","","","","","","","","","","","","","","","","","","MET11505/14/20 17:51:02 METAR KLGA 142251Z 18011G18KT 10SM SCT070 BKN110 BKN200 17/07 A3009 RMK AO2 SLP189 T01670072 (AW)","FM-15","7","","","","","","","","","","","","","","","","","","","","","","","","","","","",""
"72503014732","2020-05-14T18:51:00","FM-15","7","","","","","","","","","","","","","","","","","","","","","","","","","","","","","","","","","","","","","","30.08","46","64","0.00","","+0.05","6","52","30.08","BKN:07 65 BKN:07 100","30.05","10.00","55","190","","14","","","","","","","","","","","","","","","","","","","","","","","","","","","","","","","","","","","","","MET12305/14/20 18:51:02 METAR KLGA 142351Z 19012KT 10SM BKN065 BKN100 18/08 A3008 RMK AO2 SLP185 T01780078 10183 20167 56017 (AW)","FM-15","7","","","","","","","","","","","","","","","","","","","","","","","","","","","",""
"72503014732","2020-05-14T19:00:00","FM-12","4","","","","","","","","","","","","","","","","","","","","","","","","","","","","","","","","","","","","","","","46","64","","","+0.05","6","52","30.08","57","30.04","9.94","54","190","","14","","","","","","","","","","","","","","","","","","","","","","","","","","","","","","","","","","","","","SYN08072503 32766 61912 10178 20078 30172 40185 56017 92351 333 10183 20089 555 91500=","FM-12","4","","","","","","","","","","","","","","","","","","","","","","","","","","","",""
"72503014732","2020-05-14T19:51:00","FM-15","7","","","","","","","","","","","","","","","","","","","","","","","","","","","","","","","","","","","","","","30.07","47","63","0.00","","","","56","30.07","BKN:07 65 BKN:07 130","30.04","10.00","55","180","","10","","","","","","","","","","","","","","","","","","","","","","","","","","","","","","","","","","","","","MET10005/14/20 19:51:01 METAR KLGA 150051Z 18009KT 10SM BKN065 BKN130 17/08 A3007 RMK AO2 SLP183 T01720083","FM-15","7","","","","","","","","","","","","","","","","","","","","","","","","","","","",""
"72503014732","2020-05-14T20:51:00","FM-15","7","","","","","","","","","","","","","","","","","","","","","","","","","","","","","","","","","","","","","","30.08","48","63","0.00","","","","58","30.07","FEW:02 65 BKN:07 100 OVC:08 130","30.05","10.00","55","200","","10","","","","","","","","","","","","","","","","","","","","","","","","","","","","","","","","","","","","","MET10705/14/20 20:51:01 METAR KLGA 150151Z 20009KT 10SM FEW065 BKN100 OVC130 17/09 A3008 RMK AO2 SLP184 T01720089","FM-15","7","","","","","","","","","","","","","","","","","","","","","","","","","","","",""
"72503014732","2020-05-14T21:51:00","FM-15","7","","","","","","","","","","","","","","","","","","","","","","","","","","","","","","","","","","","","","","30.06","49","63","0.00","","+0.01","8","60","30.06","FEW:02 75 BKN:07 120","30.03","10.00","55","200","","10","","","","","","","","","","","","","","","","","","","","","","","","","","","","","","","","","","","","","MET10605/14/20 21:51:01 METAR KLGA 150251Z 20009KT 10SM FEW075 BKN120 17/09 A3006 RMK AO2 SLP180 T01720094 58005","FM-15","7","","","","","","","","","","","","","","","","","","","","","","","","","","","",""
"72503014732","2020-05-14T22:00:00","FM-12","4","","","","","","","","","","","","","","","","","","","","","","","","","","","","","","","","","","","","","","","49","63","","","+0.01","8","60","30.06","74","30.02","9.94","55","200","","10","","","","","","","","","","","","","","","","","","","","","","","","","","","","","","","","","","","","","SYN06472503 32866 62009 10172 20094 30166 40180 58005 90251 555 91503=","FM-12","4","","","","","","","","","","","","","","","","","","","","","","","","","","","",""
"72503014732","2020-05-14T22:51:00","FM-15","7","","","","","","","","","","","","","","","","","","","","","","","","","","","","","","","","","","","","","","30.05","49","62","0.00","","","","62","30.05","SCT:04 70 BKN:07 120","30.02","10.00","55","200","","9","","","","","","","","","","","","","","","","","","","","","","","","","","","","","","","","","","","","","MET10005/14/20 22:51:02 METAR KLGA 150351Z 20008KT 10SM SCT070 BKN120 17/09 A3005 RMK AO2 SLP175 T01670094","FM-15","7","","","","","","","","","","","","","","","","","","","","","","","","","","","",""
"72503014732","2020-05-14T23:51:00","FM-15","7","","","","","","","","","","","","","","","","","","","","","","","","","","","","","","","","","","","","","","30.02","49","63","0.00","","","","60","30.02","SCT:04 95 BKN:07 110","29.99","10.00","55","200","","9","","","","","","","","","","","","","","","","","","","","","","","","","","","","","","","","","","","","","MET11005/14/20 23:51:02 METAR KLGA 150451Z 20008KT 10SM SCT095 BKN110 17/09 A3002 RMK AO2 SLP166 T01720094 401830089","FM-15","7","","","","","","","","","","","","","","","","","","","","","","","","","","","",""
"72503014732","2020-05-14T23:59:00","SOD  ","6","","","","","","","","","","","","","","","38","57","48","30.21","30.20","49","8.9","0","-4.9","8","65","48","180","25","0.00","0","0.0","180","20","","","","","","","","","","","","","","","","","","","","","","","","","","","","","","","","","","","","","","","","","","","","","","","","","","","","","","","","","SOD73924 HR PRECIPITATION (IN): 0.00 SNOW DEPTH (IN):0     24 HR SNOWFALL (IN):0.0  24 HR MAX TEMP (F): 6524 HR MIN TEMP (F): 48AVERAGE STATION PRESSURE:30.200 MINIMUM SEA LEVEL PRESSURE:30.02 TIME OF OCCURRENCE:2359 PEAK WIND SPEED (MPH): 25 PEAK WIND DIR (DEG):180 PEAK WIND TIME (LST):      FASTEST 2MIN SPEED (MPH): 20FASTEST 2MIN DIR (DEG):180 FASTEST 2MIN TIME (LST):     AVERAGE WIND SPEED (MPH): 8.9 24 HR AVG TEMP (F): 57DEPART FROM NORMAL: -5  HEATING DEGREE DAYS:  8 COOLING DEGREE DAYS:  0 LATEST DAY MAX TEMP (0700-1900 LST):65  LATEST NIGHT MIN TEMP(1900-0800 LST):48 HOURLY INCREMENTAL PRECIPITATION VALUES (IN):.00 0.00 0.00 0.00 0.00 0.00 0.00 0.00 0.00 0.00 0.00 0.00 0.00 0.00 0.00 0.00 0.00 0.00 0.00 0.00 0.00 0.00 0.00 0.00","SOD  ","6","","","","","","","","","","","","","","","","","","","","","","","","","0439","1906","",""
"72503014732","2020-05-15T00:51:00","FM-15","7","","","","","","","","","","","","","","","","","","","","","","","","","","","","","","","","","","","","","","30.00","50","63","0.00","","+0.07","8","63","29.99","SCT:04 60 BKN:07 90 BKN:07 110","29.97","10.00","56","200","","8","","","","","","","","","","","","","","","","","","","","","","","","","","","","","","","","","","","","","MET13005/15/20 00:51:02 METAR KLGA 150551Z 20007KT 10SM SCT060 BKN090 BKN110 17/10 A3000 RMK AO2 SLP157 T01720100 10178 20167 58023 (RZ)","FM-15","7","","","","","","","","","","","","","","","","","","","","","","","","","","","",""
"72503014732","2020-05-15T01:00:00","FM-12","4","","","","","","","","","","","","","","","","","","","","","","","","","","","","","","","","","","","","","","","50","63","","","+0.07","8","63","29.99","57","29.96","9.94","56","200","","8","","","","","","","","","","","","","","","","","","","","","","","","","","","","","","","","","","","","","SYN08072503 32766 62007 10172 20100 30145 40157 58023 90551 333 10178 20089 555 91506=","FM-12","4","","","","","","","","","","","","","","","","","","","","","","","","","","","",""
"72503014732","2020-05-15T01:51:00","FM-15","7","","","","","","","","","","","","","","","","","","","","","","","","","","","","","","","","","","","","","","29.97","51","63","0.00","","","","65","29.97","SCT:04 95 BKN:07 120","29.94","10.00","56","200","","5","","","","","","","","","","","","","","","","","","","","","","","","","","","","","","","","","","","","","MET10505/15/20 01:51:02 METAR KLGA 150651Z 20004KT 10SM SCT095 BKN120 17/11 A2997 RMK AO2 SLP149 T01720106 (RZ)","FM-15","7","","","","","","","","","","","","","","","","","","","","","","","","","","","",""
"72503014732","2020-05-15T02:51:00","FM-15","7","","","","","","","","","","","","","","","","","","","","","","","","","","","","","","","","","","","","","","29.98","53","63","0.01","","","","70","29.97","BKN:07 70 OVC:08 100","29.95","10.00","57","210","","5","","","","","","","","","","","","","","","","","","","","","","","","","","","","","","","","","","","","","MET12005/15/20 02:51:02 METAR KLGA 150751Z 21004KT 10SM BKN070 OVC100 17/12 A2998 RMK AO2 RAB22E44 SLP150 P0001 T01720117 (RZ)","FM-15","7","","","","","","","","","","","","","","","","","","","","","","","","","","","",""
"72503014732","2020-05-15T03:51:00","FM-15","7","","","","","","","","","","","","","","","","","","","","","","","","","","","","","","","","","","","","","","29.97","54","63","T","-RA:02 |RA |RA","+0.03","6","73","29.96","SCT:04 65 BKN:07 80 OVC:08 110","29.94","10.00","58","210","","6","","","","","","","","","","","","","","","","","","","","","","","","","","","","","","","","","","","","","MET14005/15/20 03:51:02 METAR KLGA 150851Z 21005KT 10SM -RA SCT065 BKN080 OVC110 17/12 A2997 RMK AO2 RAB44 SLP147 P0000 60001 T01720122 56010 (RZ)","FM-15","7","","","","","","","","","","","","","","","","","","","","","","","","","","","",""
"72503014732","2020-05-15T04:00:00","FM-12","4","","","","","","","","","","","","","","","","","","","","","","","","","","","","","","","","","","","","","","","54","63","","||RA","+0.03","6","73","29.96","57","29.93","9.94","58","210","","6","","","","","","","","","","","","","","","","","","","","","","","","","","","","","","","","","","","","","SYN07672503 11766 82105 10172 20122 30135 40147 56010 69937 761// 90851 555 91509=","FM-12","4","","","","","","","","","","","","","","","","","","","","","","","","","","","",""
"72503014732","2020-05-15T04:51:00","FM-15","7","","","","","","","","","","","","","","","","","","","","","","","","","","","","","","","","","","","","","","29.97","55","61","T","","","","81","29.96","FEW:02 65 SCT:04 120 BKN:07 150","29.94","10.00","58","000","","0","","","","","","","","","","","","","","","","","","","","","","","","","","","","","","","","","","","","","MET12405/15/20 04:51:02 METAR KLGA 150951Z 00000KT 10SM FEW065 SCT120 BKN150 16/13 A2997 RMK AO2 RAE13 SLP147 P0000 T01610128 (RZ)","FM-15","7","","","","","","","","","","","","","","","","","","","","","","","","","","","",""
"72503014732","2020-05-15T05:51:00","FM-15","7","","","","","","","","","","","","","","","","","","","","","","","","","","","","","","","","","","","","","","29.99","54","59","0.00","","","","83","29.99","BKN:07 80 BKN:07 180","29.96","9.00","56","040","","5","","","","","","","","","","","","","","","","","","","","","","","","","","","","","","","","","","","","","MET10505/15/20 05:51:02 METAR KLGA 151051Z 04004KT 9SM BKN080 BKN180 15/12 A2999 RMK AO2 SLP156 T01500122 (PAS)","FM-15","7","","","","","","","","","","","","","","","","","","","","","","","","","","","",""
"72503014732","2020-05-15T06:51:00","FM-15","7","","","","","","","","","","","","","","","","","","","","","","","","","","","","","","","","","","","","","","30.00","57","65","0.00","","-0.04","3","76","30.00","BKN:07 70 OVC:08 180","29.97","10.00","60","280","","9","","","","","","","","","","","","","","","","","","","","","","","","","","","","","","","","","","","","","MET13605/15/20 06:51:02 METAR KLGA 151151Z 28008KT 10SM BKN070 OVC180 18/14 A3000 RMK AO2 SLP159 60001 70001 T01830139 10183 20144 53012 (PAS)","FM-15","7","","","","","","","","","","","","","","","","","","","","","","","","","","","",""
"72503014732","2020-05-15T07:00:00","FM-12","4","","","","","","","","","","","","","","","","","","","","","","","","","","","","","","","","","","","","","","","57","65","","","-0.04","3","76","30.00","74","29.96","9.94","60","280","","9","","","","","","","","","","","","","","","","","","","","","","","","","","","","","","","","","","","","","SYN09272503 12866 82808 10183 20139 30145 40159 53012 69931 91151 333 10183 20144 70003 555 91512=","FM-12","4","","","","","","","","","","","","","","","","","","","","","","","","","","","",""
"72503014732","2020-05-15T07:51:00","FM-15","7","","","","","","","","","","","","","","","","","","","","","","","","","","","","","","","","","","","","","","30.01","56","66","0.00","","","","70","30.00","SCT:04 65 BKN:07 100 OVC:08 150","29.98","10.00","60","270","","9","","","","","","","","","","","","","","","","","","","","","","","","","","","","","","","","","","","","","MET11305/15/20 07:51:02 METAR KLGA 151251Z 27008KT 10SM SCT065 BKN100 OVC150 19/13 A3001 RMK AO2 SLP160 T01890133 (PAS)","FM-15","7","","","","","","","","","","","","","","","","","","","","","","","","","","","",""
"72503014732","2020-05-15T08:51:00","FM-15","7","","","","","","","","","","","","","","","","","","","","","","","","","","","","","","","","","","","","","","30.00","58","71","0.00","","","","63","30.00","FEW:02 100 SCT:04 250","29.97","10.00","63","250","","9","","","","","","","","","","","","","","","","","","","","","","","","","","","","","","","","","","","","","MET10605/15/20 08:51:02 METAR KLGA 151351Z 25008KT 10SM FEW100 SCT250 22/14 A3000 RMK AO2 SLP158 T02170144 (PAS)","FM-15","7","","","","","","","","","","","","","","","","","","","","","","","","","","","",""
"72503014732","2020-05-15T09:51:00","FM-15","7","","","","","","","","","","","","","","","","","","","","","","","","","","","","","","","","","","","","","","29.98","58","75","0.00","","+0.02","8","55","29.98","FEW:02 60 FEW:02 100 FEW:02 250","29.95","10.00","65","250","","9","","","","","","","","","","","","","","","","","","","","","","","","","","","","","","","","","","","","","MET11905/15/20 09:51:02 METAR KLGA 151451Z 25008KT 10SM FEW060 FEW100 FEW250 24/14 A2998 RMK AO2 SLP151 T02390144 58008 (PAS)","FM-15","7","","","","","","","","","","","","","","","","","","","","","","","","","","","",""
"72503014732","2020-05-15T10:00:00","FM-12","4","","","","","","","","","","","","","","","","","","","","","","","","","","","","","","","","","","","","","","","58","75","","","+0.02","8","55","29.98","57","29.94","9.94","65","250","","9","","","","","","","","","","","","","","","","","","","","","","","","","","","","","","","","","","","","","SYN06472503 32766 22508 10239 20144 30139 40151 58008 91451 555 91515=","FM-12","4","","","","","","","","","","","","","","","","","","","","","","","","","","","",""
"72503014732","2020-05-15T10:51:00","FM-15","7","","","","","","","","","","","","","","","","","","","","","","","","","","","","","","","","","","","","","","29.96","57","77","0.00","","","","50","29.96","FEW:02 65 BKN:07 130","29.93","10.00","65","230","18","14","","","","","","","","","","","","","","","","","","","","","","","","","","","","","","","","","","","","","MET10905/15/20 10:51:02 METAR KLGA 151551Z 23012G16KT 10SM FEW065 BKN130 25/14 A2996 RMK AO2 SLP144 T02500139 (PAS)","FM-15","7","","","","","","","","","","","","","","","","","","","","","","","","","","","",""
"72503014732","2020-05-15T11:51:00","FM-15","7","","","","","","","","","","","","","","","","","","","","","","","","","","","","","","","","","","","","","","29.93","57","79","0.00","","","","47","29.93","FEW:02 55 BKN:07 160 BKN:07 250","29.90","10.00","66","230","","11","","","","","","","","","","","","","","","","","","","","","","","","","","","","","","","","","","","","","MET11305/15/20 11:51:02 METAR KLGA 151651Z 23010KT 10SM FEW055 BKN160 BKN250 26/14 A2993 RMK AO2 SLP134 T02610139 (PAS)","FM-15","7","","","","","","","","","","","","","","","","","","","","","","","","","","","",""
"72503014732","2020-05-15T12:51:00","FM-15","7","","","","","","","","","","","","","","","","","","","","","","","","","","","","","","","","","","","","","","29.91","58","82","0.00","","+0.07","6","44","29.91","FEW:02 60 FEW:02 160","29.88","10.00","67","220","23","15","","","","","","","","","","","","","","","","","","","","","","","","","","","","","","","","","","","","","MET12705/15/20 12:51:02 METAR KLGA 151751Z 22013G20KT 10SM FEW060 FEW160 28/14 A2991 RMK AO2 SLP129 T02780144 10278 20183 56023 (PAS)","FM-15","7","","","","","","","","","","","","","","","","","","","","","","","","","","","",""
"72503014732","2020-05-15T13:00:00","FM-12","4","","","","","","","","","","","","","","","","","","","","","","","","","","","","","","","","","","","","","","","58","82","","","+0.07","6","44","29.91","57","29.87","9.94","67","220","","15","","","","","","","","","","","","","","","","","","","","","","","","","","","","","","","","","","","","","SYN08672503 32766 22213 10278 20144 30115 40129 56023 91751 333 10278 20167 91020 555 91518=","FM-12","4","","","","","","","","","","","","","","","","","","","","","","","","","","","",""
"72503014732","2020-05-15T13:51:00","FM-15","7","","","","","","","","","","","","","","","","","","","","","","","","","","","","","","","","","","","","","","29.89","57","83","0.00","","","","41","29.88","FEW:02 60 SCT:04 160","29.86","10.00","67","220","24","14","","","","","","","","","","","","","","","","","","","","","","","","","","","","","","","","","","","","","MET10805/15/20 13:51:02 METAR KLGA 151851Z 22012G21KT 10SM FEW060 SCT160 28/14 A2989 RMK AO2 SLP120 T02830139 (WL)","FM-15","7","","","","","","","","","","","","","","","","","","","","","","","","","","","",""
"72503014732","2020-05-15T14:51:00","FM-15","7","","","","","","","","","","","","","","","","","","","","","","","","","","","","","","","","","","","","","","29.86","56","85","0.00","","","","37","29.85","FEW:02 65 SCT:04 160","29.83","10.00","67","230","24","15","","","","","","","","","","","","","","","","","","","","","","","","","","","","","","","","","","","","","MET10805/15/20 14:51:02 METAR KLGA 151951Z 23013G21KT 10SM FEW065 SCT160 29/13 A2986 RMK AO2 SLP110 T02940133 (WL)","FM-15","7","","","","","","","","","","","","","","","","","","","","","","","","","","","",""
"72503014732","2020-05-15T15:51:00","FM-15","7","","","","","","","","","","","","","","","","","","","","","","","","","","","","","","","","","","","","","","29.83","56","85","0.00","","+0.08","7","37","29.83","FEW:02 65 SCT:04 250","29.80","10.00","67","230","24","17","","","","","","","","","","","","","","","","","","","","","","","","","","","","","","","","","","","","","MET11405/15/20 15:51:02 METAR KLGA 152051Z 23015G21KT 10SM FEW065 SCT250 29/13 A2983 RMK AO2 SLP101 T02940133 57027 (WL)","FM-15","7","","","","","","","","","","","","","","","","","","","","","","","","","","","",""
"72503014732","2020-05-15T16:00:00","FM-12","4","","","","","","","","","","","","","","","","","","","","","","","","","","","","","","","","","","","","","","","56","85","","","+0.08","7","37","29.83","57","29.79","9.94","67","230","","17","","","","","","","","","","","","","","","","","","","","","","","","","","","","","","","","","","","","","SYN07472503 32766 42315 10294 20133 30088 40101 57027 92051 333 91021 555 91521=","FM-12","4","","","","","","","","","","","","","","","","","","","","","","","","","","","",""
"72503014732","2020-05-15T16:51:00","FM-15","7","","","","","","","","","","","","","","","","","","","","","","","","","","","","","","","","","","","","","","29.81","56","85","0.00","","","","37","29.81","FEW:02 65 SCT:04 250","29.78","10.00","67","210","26","17","","","","","","","","","","","","","","","","","","","","","","","","","","","","","","","","","","","","","MET10805/15/20 16:51:02 METAR KLGA 152151Z 21015G23KT 10SM FEW065 SCT250 29/13 A2981 RMK AO2 SLP094 T02940133 (WL)","FM-15","7","","","","","","","","","","","","","","","","","","","","","","","","","","","",""
"72503014732","2020-05-15T17:51:00","FM-15","7","","","","","","","","","","","","","","","","","","","","","","","","","","","","","","","","","","","","","","29.79","53","84","0.00","","","","34","29.79","FEW:02 60 SCT:04 250","29.76","10.00","65","210","28","18","","","","","","","","","","","","","","","","","","","","","","","","","","","","","","","","","","","","","MET12605/15/20 17:51:02 METAR KLGA 152251Z 21016G24KT 10SM FEW060 SCT250 29/12 A2979 RMK AO2 PK WND 21026/2232 SLP088 T02890117 (WL)","FM-15","7","","","","","","","","","","","","","","","","","","","","","","","","","","","",""
"72503014732","2020-05-15T18:51:00","FM-15","7","","","","","","","","","","","","","","","","","","","","","","","","","","","","","","","","","","","","","","29.79","51","82","0.00","","+0.04","5","34","29.79","FEW:02 55 SCT:04 100 SCT:04 250","29.76","10.00","64","240","29","21","","","","","","","","","","","","","","","","","","","","","","","","","","","","","","","","","","","","","MET13305/15/20 18:51:02 METAR KLGA 152351Z 24018G25KT 10SM FEW055 SCT100 SCT250 28/11 A2979 RMK AO2 SLP089 T02780106 10300 20272 55013 (WL)","FM-15","7","","","","","","","","","","","","","","","","","","","","","","","","","","","",""
"72503014732","2020-05-15T19:00:00","FM-12","4","","","","","","","","","","","","","","","","","","","","","","","","","","","","","","","","","","","","","","","51","82","","","+0.04","5","34","29.79","57","29.75","9.94","64","240","","21","","","","","","","","","","","","","","","","","","","","","","","","","","","","","","","","","","","","","SYN08672503 32766 42418 10278 20106 30074 40089 55013 92351 333 10300 20144 91025 555 91600=","FM-12","4","","","","","","","","","","","","","","","","","","","","","","","","","","","",""
"72503014732","2020-05-15T19:51:00","FM-15","7","","","","","","","","","","","","","","","","","","","","","","","","","","","","","","","","","","","","","","29.78","54","81","0.00","","","","39","29.78","FEW:02 50 FEW:02 100 SCT:04 250","29.75","10.00","65","210","25","20","","","","","","","","","","","","","","","","","","","","","","","","","","","","","","","","","","","","","MET14505/15/20 19:51:01 METAR KLGA 160051Z 21017G22KT 10SM FEW050 FEW100 SCT250 27/12 A2978 RMK AO2 PK WND 22027/2352 SLP086 CB DSNT NW MOV E T02720122","FM-15","7","","","","","","","","","","","","","","","","","","","","","","","","","","","",""
"72503014732","2020-05-15T20:51:00","FM-15","7","","","","","","","","","","","","","","","","","","","","","","","","","","","","","","","","","","","","","","29.81","55","80","0.00","","","","42","29.81","FEW:02 50 BKN:07 120 BKN:07 250","29.78","10.00","65","220","23","16","","","","","","","","","","","","","","","","","","","","","","","","","","","","","","","","","","","","","MET12705/15/20 20:51:01 METAR KLGA 160151Z 22014G20KT 10SM FEW050 BKN120 BKN250 27/13 A2981 RMK AO2 SLP096 CB DSNT NW MOV E T02670128","FM-15","7","","","","","","","","","","","","","","","","","","","","","","","","","","","",""
"72503014732","2020-05-15T21:51:00","FM-15","7","","","","","","","","","","","","","","","","","","","","","","","","","","","","","","","","","","","","","","29.84","59","76","0.01","","-0.05","3","56","29.84","FEW:02 75 SCT:04 90 BKN:07 110","29.81","10.00","66","250","","6","","","","","","","","","","","","","","","","","","","","","","","","","","","","","","","","","","","","","MET13405/15/20 21:51:01 METAR KLGA 160251Z 25005KT 10SM FEW075 SCT090 BKN110 24/15 A2984 RMK AO2 RAB17E45 SLP105 P0001 60001 T02440150 53016","FM-15","7","","","","","","","","","","","","","","","","","","","","","","","","","","","",""
"72503014732","2020-05-15T22:00:00","FM-12","4","","","","","","","","","","","","","","","","","","","","","","","","","","","","","","","","","","","","","","","59","76","","","-0.05","3","56","29.84","74","29.80","9.94","66","250","","6","","","","","","","","","","","","","","","","","","","","","","","","","","","","","","","","","","","","","SYN07072503 12866 62505 10244 20150 30091 40105 53016 69937 90251 555 91603=","FM-12","4","","","","","","","","","","","","","","","","","","","","","","","","","","","",""
"72503014732","2020-05-15T22:51:00","FM-15","7","","","","","","","","","","","","","","","","","","","","","","","","","","","","","","","","","","","","","","29.85","59","71","0.02","-RA:02 |RA |RA","","","66","29.85","SCT:04 48 BKN:07 75 OVC:08 110","29.82","7.00","64","260","","9","","","","","","","","","","","","","","","","","","","","","","","","","","","","","","","","","","","","","MET12205/15/20 22:51:02 METAR KLGA 160351Z 26008KT 7SM -RA SCT048 BKN075 OVC110 22/15 A2985 RMK AO2 RAB07 SLP109 P0002 T02170150","FM-15","7","","","","","","","","","","","","","","","","","","","","","","","","","","","",""
"72503014732","2020-05-15T23:51:00","FM-15","7","","","","","","","","","","","","","","","","","","","","","","","","","","","","","","","","","","","","","","29.85","61","72","T","-RA:02 |RA |RA","","","68","29.85","BKN:07 65 OVC:08 100","29.82","10.00","65","270","","15","","","","","","","","","","","","","","","","","","","","","","","","","","","","","","","","","","","","","MET12005/15/20 23:51:02 METAR KLGA 160451Z 27013KT 10SM -RA BKN065 OVC100 22/16 A2985 RMK AO2 SLP109 P0000 T02220161 403000144","FM-15","7","","","","","","","","","","","","","","","","","","","","","","","","","","","",""
"72503014732","2020-05-15T23:59:00","SOD  ","6","","","","","","","","","","","","","","","56","72","55","29.90","29.89","63","11.4","7","9.8","0","86","58","220","30","0.04","0","0.0","230","23","RA","","","","","","","","","","","","","","","","","","","","","","","","","","","","","","","","","","","","","","","","","","","","","","","","","","","","","","","","SOD73624 HR PRECIPITATION (IN): 0.04 SNOW DEPTH (IN):0     24 HR SNOWFALL (IN):0.0  24 HR MAX TEMP (F): 8624 HR MIN TEMP (F): 58AVERAGE STATION PRESSURE:29.890 MINIMUM SEA LEVEL PRESSURE:29.78 TIME OF OCCURRENCE:2001 PEAK WIND SPEED (MPH): 30 PEAK WIND DIR (DEG):220 PEAK WIND TIME (LST):      FASTEST 2MIN SPEED (MPH): 23FASTEST 2MIN DIR (DEG):230 FASTEST 2MIN TIME (LST):     AVERAGE WIND SPEED (MPH):11.4 24 HR AVG TEMP (F): 72DEPART FROM NORMAL: 10  HEATING DEGREE DAYS:  0 COOLING DEGREE DAYS:  7 LATEST DAY MAX TEMP (0700-1900 LST):86  LATEST NIGHT MIN TEMP(1900-0800 LST):58 HOURLY INCREMENTAL PRECIPITATION VALUES (IN):.00 0.00 0.01 T    T    0.00 0.00 0.00 0.00 0.00 0.00 0.00 0.00 0.00 0.00 0.00 0.00 0.00 0.00 0.00 0.00 0.01 0.02 T","SOD  ","6","","","","","","","","","","","","","","","","","","","","","","","","","0438","1907","",""
"72503014732","2020-05-16T00:51:00","FM-15","7","","","","","","","","","","","","","","","","","","","","","","","","","","","","","","","","","","","","","","29.85","61","71","T","-RA:02 |RA |RA","-0.01","0","71","29.85","BKN:07 65 OVC:08 80","29.82","10.00","65","280","21","13","","","","","","","","","","","","","","","","","","","","","","","","","","","","","","","","","","","","","MET15305/16/20 00:51:02 METAR KLGA 160551Z 28011G18KT 10SM -RA BKN065 OVC080 22/16 A2985 RMK AO2 RAE0452B43 SLP108 P0000 60003 T02170161 10278 20211 50003 (RZ)","FM-15","7","","","","","","","","","","","","","","","","","","","","","","","","","","","",""
"72503014732","2020-05-16T01:00:00","FM-12","4","","","","","","","","","","","","","","","","","","","","","","","","","","","","","","","","","","","","","","","61","71","","||RA","0.01","9","71","29.85","57","29.81","9.94","65","280","","13","","","","","","","","","","","","","","","","","","","","","","","","","","","","","","","","","","","","","SYN09872503 11766 82811 10217 20161 30095 40108 50003 69981 761// 90551 333 10278 20144 91018 555 91606=","FM-12","4","","","","","","","","","","","","","","","","","","","","","","","","","","","",""
"72503014732","2020-05-16T01:51:00","FM-15","7","","","","","","","","","","","","","","","","","","","","","","","","","","","","","","","","","","","","","","29.85","60","71","T","-RA:02 |RA |RA","","","68","29.85","OVC:08 100","29.82","10.00","64","260","22","11","","","","","","","","","","","","","","","","","","","","","","","","","","","","","","","","","","","","","MET12805/16/20 01:51:02 METAR KLGA 160651Z 26010G19KT 10SM -RA OVC100 22/16 A2985 RMK AO2 RAE0554B22E32B51 SLP108 P0000 T02170156 (RZ)","FM-15","7","","","","","","","","","","","","","","","","","","","","","","","","","","","",""
"72503014732","2020-05-16T02:51:00","FM-15","7","","","","","","","","","","","","","","","","","","","","","","","","","","","","","","","","","","","","","","29.87","60","69","T","-RA:02 |RA |RA","","","73","29.87","OVC:08 100","29.84","10.00","64","290","","14","","","","","","","","","","","","","","","","","","","","","","","","","","","","","","","","","","","","","MET10805/16/20 02:51:02 METAR KLGA 160751Z 29012KT 10SM -RA OVC100 21/16 A2987 RMK AO2 SLP114 P0000 T02060156 (RZ)","FM-15","7","","","","","","","","","","","","","","","","","","","","","","","","","","","",""
"72503014732","2020-05-16T03:51:00","FM-15","7","","","","","","","","","","","","","","","","","","","","","","","","","","","","","","","","","","","","","","29.89","58","66","T","|RA |RA","-0.04","3","75","29.88","FEW:02 38 SCT:04 80 BKN:07 110","29.86","10.00","61","310","","15","","","","","","","","","","","","","","","","","","","","","","","","","","","","","","","","","","","","","MET14305/16/20 03:51:02 METAR KLGA 160851Z 31013KT 10SM -RA FEW038 SCT080 BKN110 19/14 A2989 RMK AO2 RAE14B36 SLP120 P0000 60000 T01890144 53013 (RZ)","FM-15","7","","","","","","","","","","","","","","","","","","","","","","","","","","","",""
"72503014732","2020-05-16T04:00:00","FM-12","4","","","","","","","","","","","","","","","","","","","","","","","","","","","","","","","","","","","","","","","58","66","","||RA","-0.04","3","75","29.88","41","29.85","9.94","61","310","","15","","","","","","","","","","","","","","","","","","","","","","","","","","","","","","","","","","","","","SYN07672503 11666 83113 10189 20144 30108 40120 53013 69907 761// 90851 555 91609=","FM-12","4","","","","","","","","","","","","","","","","","","","","","","","","","","","",""
"72503014732","2020-05-16T04:51:00","FM-15","7","","","","","","","","","","","","","","","","","","","","","","","","","","","","","","","","","","","","","","29.91","56","64","T","","","","75","29.91","FEW:02 30 SCT:04 50 OVC:08 120","29.88","10.00","59","310","","11","","","","","","","","","","","","","","","","","","","","","","","","","","","","","","","","","","","","","MET12405/16/20 04:51:02 METAR KLGA 160951Z 31010KT 10SM FEW030 SCT050 OVC120 18/13 A2991 RMK AO2 RAE17 SLP129 P0000 T01780133 (RZ)","FM-15","7","","","","","","","","","","","","","","","","","","","","","","","","","","","",""
"72503014732","2020-05-16T05:51:00","FM-15","7","","","","","","","","","","","","","","","","","","","","","","","","","","","","","","","","","","","","","","29.95","55","65","0.00","","","","70","29.95","FEW:02 30 BKN:07 60 BKN:07 100","29.92","10.00","59","320","","9","","","","","","","","","","","","","","","","","","","","","","","","","","","","","","","","","","","","","MET11205/16/20 05:51:02 METAR KLGA 161051Z 32008KT 10SM FEW030 BKN060 BKN100 18/13 A2995 RMK AO2 SLP141 T01830128 (ML)","FM-15","7","","","","","","","","","","","","","","","","","","","","","","","","","","","",""
"72503014732","2020-05-16T06:51:00","FM-15","7","","","","","","","","","","","","","","","","","","","","","","","","","","","","","","","","","","","","","","29.98","51","65","0.00","","-0.09","3","61","29.98","FEW:02 30 FEW:02 60 SCT:04 100","29.95","10.00","57","330","","13","","","","","","","","","","","","","","","","","","","","","","","","","","","","","","","","","","","","","MET14205/16/20 06:51:02 METAR KLGA 161151Z 33011KT 10SM FEW030 FEW060 SCT100 18/11 A2998 RMK AO2 SLP151 60000 70003 T01830106 10222 20178 53031 (ML)","FM-15","7","","","","","","","","","","","","","","","","","","","","","","","","","","","",""
"72503014732","2020-05-16T07:00:00","FM-12","4","","","","","","","","","","","","","","","","","","","","","","","","","","","","","","","","","","","","","","","51","65","","","-0.09","3","61","29.98","26","29.94","9.94","57","330","","13","","","","","","","","","","","","","","","","","","","","","","","","","","","","","","","","","","","","","SYN09272503 12566 63311 10183 20106 30139 40151 53031 69901 91151 333 10300 20178 70008 555 91612=","FM-12","4","","","","","","","","","","","","","","","","","","","","","","","","","","","",""
"72503014732","2020-05-16T07:51:00","FM-15","7","","","","","","","","","","","","","","","","","","","","","","","","","","","","","","","","","","","","","","30.01","50","65","0.00","","","","59","30.01","FEW:02 30 FEW:02 60 SCT:04 150","29.98","10.00","57","330","","13","","","","","","","","","","","","","","","","","","","","","","","","","","","","","","","","","","","","","MET11205/16/20 07:51:02 METAR KLGA 161251Z 33011KT 10SM FEW030 FEW060 SCT150 18/10 A3001 RMK AO2 SLP163 T01830100 (ML)","FM-15","7","","","","","","","","","","","","","","","","","","","","","","","","","","","",""
"72503014732","2020-05-16T08:51:00","FM-15","7","","","","","","","","","","","","","","","","","","","","","","","","","","","","","","","","","","","","","","30.03","50","67","0.00","","","","55","30.03","FEW:02 30 FEW:02 150 BKN:07 250","30.00","10.00","58","350","","14","","","","","","","","","","","","","","","","","","","","","","","","","","","","","","","","","","","","","MET11205/16/20 08:51:02 METAR KLGA 161351Z 35012KT 10SM FEW030 FEW150 BKN250 19/10 A3003 RMK AO2 SLP169 T01940100 (ML)","FM-15","7","","","","","","","","","","","","","","","","","","","","","","","","","","","",""
"72503014732","2020-05-16T09:51:00","FM-15","7","","","","","","","","","","","","","","","","","","","","","","","","","","","","","","","","","","","","","","30.04","50","68","0.00","","-0.06","1","53","30.04","FEW:02 50 FEW:02 150 BKN:07 250","30.01","10.00","58","340","","9","","","","","","","","","","","","","","","","","","","","","","","","","","","","","","","","","","","","","MET11805/16/20 09:51:02 METAR KLGA 161451Z 34008KT 10SM FEW050 FEW150 BKN250 20/10 A3004 RMK AO2 SLP173 T02000100 51022 (ML)","FM-15","7","","","","","","","","","","","","","","","","","","","","","","","","","","","",""
"72503014732","2020-05-16T10:00:00","FM-12","4","","","","","","","","","","","","","","","","","","","","","","","","","","","","","","","","","","","","","","","50","68","","","-0.06","1","53","30.04","57","30.00","9.94","58","340","","9","","","","","","","","","","","","","","","","","","","","","","","","","","","","","","","","","","","","","SYN06472503 32766 63408 10200 20100 30159 40173 51022 91451 555 91615=","FM-12","4","","","","","","","","","","","","","","","","","","","","","","","","","","","",""
"72503014732","2020-05-16T10:51:00","FM-15","7","","","","","","","","","","","","","","","","","","","","","","","","","","","","","","","","","","","","","","30.06","49","70","0.00","","","","47","30.06","FEW:02 50 FEW:02 150 BKN:07 250","30.03","10.00","58","020","","14","","","","","","","","","","","","","","","","","","","","","","","","","","","","","","","","","","","","","MET11205/16/20 10:51:02 METAR KLGA 161551Z 02012KT 10SM FEW050 FEW150 BKN250 21/09 A3006 RMK AO2 SLP178 T02110094 (ML)","FM-15","7","","","","","","","","","","","","","","","","","","","","","","","","","","","",""
"72503014732","2020-05-16T11:51:00","FM-15","7","","","","","","","","","","","","","","","","","","","","","","","","","","","","","","","","","","","","","","30.06","49","72","0.00","","","","44","30.06","FEW:02 50 FEW:02 200 BKN:07 250","30.03","10.00","59","360","","10","","","","","","","","","","","","","","","","","","","","","","","","","","","","","","","","","","","","","MET11205/16/20 11:51:02 METAR KLGA 161651Z 36009KT 10SM FEW050 FEW200 BKN250 22/09 A3006 RMK AO2 SLP180 T02220094 (ML)","FM-15","7","","","","","","","","","","","","","","","","","","","","","","","","","","","",""
"72503014732","2020-05-16T12:51:00","FM-15","7","","","","","","","","","","","","","","","","","","","","","","","","","","","","","","","","","","","","","","30.07","48","74","0.00","","-0.02","1","40","30.06","FEW:02 55 FEW:02 200 BKN:07 250","30.04","10.00","59","VRB","","5","","","","","","","","","","","","","","","","","","","","","","","","","","","","","","","","","","","","","MET13005/16/20 12:51:02 METAR KLGA 161751Z VRB04KT 10SM FEW055 FEW200 BKN250 23/09 A3007 RMK AO2 SLP181 T02330089 10233 20178 51007 (ML)","FM-15","7","","","","","","","","","","","","","","","","","","","","","","","","","","","",""
"72503014732","2020-05-16T13:00:00","FM-12","4","","","","","","","","","","","","","","","","","","","","","","","","","","","","","","","","","","","","","","","48","74","","","-0.02","1","40","30.06","57","30.03","9.94","59","","","5","","","","","","","","","","","","","","","","","","","","","","","","","","","","","","","","","","","","","SYN08072503 32766 6//04 10233 20089 30169 40181 51007 91751 333 10233 20178 555 91618=","FM-12","4","","","","","","","","","","","","","","","","","","","","","","","","","","","",""
"72503014732","2020-05-16T13:51:00","FM-15","7","","","","","","","","","","","","","","","","","","","","","","","","","","","","","","","","","","","","","","30.07","46","75","0.00","","","","36","30.06","SCT:04 60 BKN:07 250","30.04","10.00","59","070","","10","","","","","","","","","","","","","","","","","","","","","","","","","","","","","","","","","","","","","MET10505/16/20 13:51:02 METAR KLGA 161851Z 07009KT 10SM SCT060 BKN250 24/08 A3007 RMK AO2 SLP181 T02390078 (JG)","FM-15","7","","","","","","","","","","","","","","","","","","","","","","","","","","","",""
"72503014732","2020-05-16T14:51:00","FM-15","7","","","","","","","","","","","","","","","","","","","","","","","","","","","","","","","","","","","","","","30.07","45","75","0.00","","","","34","30.06","FEW:02 60 BKN:07 250","30.04","10.00","59","090","","7","","","","","","","","","","","","","","","","","","","","","","","","","","","","","","","","","","","","","MET10505/16/20 14:51:02 METAR KLGA 161951Z 09006KT 10SM FEW060 BKN250 24/07 A3007 RMK AO2 SLP181 T02390072 (JG)","FM-15","7","","","","","","","","","","","","","","","","","","","","","","","","","","","",""
"72503014732","2020-05-16T15:51:00","FM-15","7","","","","","","","","","","","","","","","","","","","","","","","","","","","","","","","","","","","","","","30.06","45","75","0.00","","+0.00","8","34","30.06","FEW:02 60 BKN:07 250","30.03","10.00","59","080","","8","","","","","","","","","","","","","","","","","","","","","","","","","","","","","","","","","","","","","MET11105/16/20 15:51:02 METAR KLGA 162051Z 08007KT 10SM FEW060 BKN250 24/07 A3006 RMK AO2 SLP180 T02390072 58001 (JG)","FM-15","7","","","","","","","","","","","","","","","","","","","","","","","","","","","",""
"72503014732","2020-05-16T16:00:00","FM-12","4","","","","","","","","","","","","","","","","","","","","","","","","","","","","","","","","","","","","","","","45","75","","","+0.00","8","34","30.06","57","30.02","9.94","59","080","","8","","","","","","","","","","","","","","","","","","","","","","","","","","","","","","","","","","","","","SYN06472503 32766 60807 10239 20072 30166 40180 58001 92051 555 91621=","FM-12","4","","","","","","","","","","","","","","","","","","","","","","","","","","","",""
"72503014732","2020-05-16T16:51:00","FM-15","7","","","","","","","","","","","","","","","","","","","","","","","","","","","","","","","","","","","","","","30.07","42","76","0.00","","","","30","30.07","FEW:02 55 BKN:07 250","30.04","10.00","58","120","","5","","","","","","","","","","","","","","","","","","","","","","","","","","","","","","","","","","","","","MET10505/16/20 16:51:02 METAR KLGA 162151Z 12004KT 10SM FEW055 BKN250 24/06 A3007 RMK AO2 SLP183 T02440056 (JG)","FM-15","7","","","","","","","","","","","","","","","","","","","","","","","","","","","",""
"72503014732","2020-05-16T17:51:00","FM-15","7","","","","","","","","","","","","","","","","","","","","","","","","","","","","","","","","","","","","","","30.08","46","74","0.00","","","","37","30.08","FEW:02 65 BKN:07 250","30.05","10.00","59","180","","13","","","","","","","","","","","","","","","","","","","","","","","","","","","","","","","","","","","","","MET10505/16/20 17:51:02 METAR KLGA 162251Z 18011KT 10SM FEW065 BKN250 23/08 A3008 RMK AO2 SLP186 T02330078 (JG)","FM-15","7","","","","","","","","","","","","","","","","","","","","","","","","","","","",""
"72503014732","2020-05-16T18:51:00","FM-15","7","","","","","","","","","","","","","","","","","","","","","","","","","","","","","","","","","","","","","","30.11","47","70","0.00","","-0.05","3","44","30.11","FEW:02 60 BKN:07 250","30.08","10.00","57","170","","10","","","","","","","","","","","","","","","","","","","","","","","","","","","","","","","","","","","","","MET12305/16/20 18:51:02 METAR KLGA 162351Z 17009KT 10SM FEW060 BKN250 21/08 A3011 RMK AO2 SLP197 T02110083 10250 20211 53017 (JG)","FM-15","7","","","","","","","","","","","","","","","","","","","","","","","","","","","",""
"72503014732","2020-05-16T19:00:00","FM-12","4","","","","","","","","","","","","","","","","","","","","","","","","","","","","","","","","","","","","","","","47","70","","","-0.05","3","44","30.11","57","30.07","9.94","57","170","","10","","","","","","","","","","","","","","","","","","","","","","","","","","","","","","","","","","","","","SYN08072503 32766 61709 10211 20083 30183 40197 53017 92351 333 10250 20178 555 91700=","FM-12","4","","","","","","","","","","","","","","","","","","","","","","","","","","","",""
"72503014732","2020-05-16T19:51:00","FM-15","7","","","","","","","","","","","","","","","","","","","","","","","","","","","","","","","","","","","","","","30.13","46","69","0.00","","","","44","30.13","FEW:02 60 BKN:07 250","30.10","10.00","57","200","","8","","","","","","","","","","","","","","","","","","","","","","","","","","","","","","","","","","","","","MET10005/16/20 19:51:01 METAR KLGA 170051Z 20007KT 10SM FEW060 BKN250 21/08 A3013 RMK AO2 SLP202 T02060078","FM-15","7","","","","","","","","","","","","","","","","","","","","","","","","","","","",""
"72503014732","2020-05-16T20:51:00","FM-15","7","","","","","","","","","","","","","","","","","","","","","","","","","","","","","","","","","","","","","","30.15","47","67","0.00","","","","49","30.15","FEW:02 65 BKN:07 250","30.12","10.00","56","180","","10","","","","","","","","","","","","","","","","","","","","","","","","","","","","","","","","","","","","","MET10005/16/20 20:51:01 METAR KLGA 170151Z 18009KT 10SM FEW065 BKN250 19/08 A3015 RMK AO2 SLP211 T01940083","FM-15","7","","","","","","","","","","","","","","","","","","","","","","","","","","","",""
"72503014732","2020-05-16T21:51:00","FM-15","7","","","","","","","","","","","","","","","","","","","","","","","","","","","","","","","","","","","","","","30.17","47","65","0.00","","-0.06","1","52","30.17","FEW:02 65 BKN:07 250","30.14","10.00","55","180","","9","","","","","","","","","","","","","","","","","","","","","","","","","","","","","","","","","","","","","MET10605/16/20 21:51:01 METAR KLGA 170251Z 18008KT 10SM FEW065 BKN250 18/08 A3017 RMK AO2 SLP216 T01830083 51020","FM-15","7","","","","","","","","","","","","","","","","","","","","","","","","","","","",""
"72503014732","2020-05-16T22:00:00","FM-12","4","","","","","","","","","","","","","","","","","","","","","","","","","","","","","","","","","","","","","","","47","65","","","-0.06","1","52","30.17","57","30.13","9.94","55","180","","9","","","","","","","","","","","","","","","","","","","","","","","","","","","","","","","","","","","","","SYN06472503 32766 61808 10183 20083 30203 40216 51020 90251 555 91703=","FM-12","4","","","","","","","","","","","","","","","","","","","","","","","","","","","",""
"72503014732","2020-05-16T22:51:00","FM-15","7","","","","","","","","","","","","","","","","","","","","","","","","","","","","","","","","","","","","","","30.20","47","63","0.00","","","","56","30.20","FEW:02 70 SCT:04 250","30.17","10.00","55","150","","13","","","","","","","","","","","","","","","","","","","","","","","","","","","","","","","","","","","","","MET10005/16/20 22:51:02 METAR KLGA 170351Z 15011KT 10SM FEW070 SCT250 17/08 A3020 RMK AO2 SLP227 T01720083","FM-15","7","","","","","","","","","","","","","","","","","","","","","","","","","","","",""
"72503014732","2020-05-16T23:51:00","FM-15","7","","","","","","","","","","","","","","","","","","","","","","","","","","","","","","","","","","","","","","30.22","48","59","0.00","","","","67","30.22","SCT:04 70 SCT:04 250","30.19","10.00","53","120","","15","","","","","","","","","","","","","","","","","","","","","","","","","","","","","","","","","","","","","MET11005/16/20 23:51:02 METAR KLGA 170451Z 12013KT 10SM SCT070 SCT250 15/09 A3022 RMK AO2 SLP233 T01500089 402500150","FM-15","7","","","","","","","","","","","","","","","","","","","","","","","","","","","",""
"72503014732","2020-05-16T23:59:00","SOD  ","6","","","","","","","","","","","","","","","50","68","52","30.04","29.96","59","10.8","3","5.5","0","77","59","260","27","T","0","0.0","140","20","RA","","","","","","","","","","","","","","","","","","","","","","","","","","","","","","","","","","","","","","","","","","","","","","","","","","","","","","","","SOD73924 HR PRECIPITATION (IN):    T SNOW DEPTH (IN):0     24 HR SNOWFALL (IN):0.0  24 HR MAX TEMP (F): 7724 HR MIN TEMP (F): 59AVERAGE STATION PRESSURE:29.965 MINIMUM SEA LEVEL PRESSURE:29.85 TIME OF OCCURRENCE:0155 PEAK WIND SPEED (MPH): 27 PEAK WIND DIR (DEG):260 PEAK WIND TIME (LST):      FASTEST 2MIN SPEED (MPH): 20FASTEST 2MIN DIR (DEG):140 FASTEST 2MIN TIME (LST):     AVERAGE WIND SPEED (MPH):10.8 24 HR AVG TEMP (F): 68DEPART FROM NORMAL:  6  HEATING DEGREE DAYS:  0 COOLING DEGREE DAYS:  3 LATEST DAY MAX TEMP (0700-1900 LST):77  LATEST NIGHT MIN TEMP(1900-0800 LST):64 HOURLY INCREMENTAL PRECIPITATION VALUES (IN):    T    T    T    T    0.00 0.00 0.00 0.00 0.00 0.00 0.00 0.00 0.00 0.00 0.00 0.00 0.00 0.00 0.00 0.00 0.00 0.00 0.00","SOD  ","6","","","","","","","","","","","","","","","","","","","","","","","","","0437","1908","",""